{"type":"FeatureCollection","features":[{"type":"Feature","geometry":{"type":"MultiPolygon","coordinates":[[[[-3.426000902766062,47.64241262670785],[-3.425882797022572,47.64231979733015],[-3.425625967151913,47.642406200023494],[-3.425652799371111,47.642296350985895],[-3.425497835316994,47.642341015427704],[-3.425422801921756,47.642272904188616],[-3.425510310653355,47.642222926879775],[-3.425457496074261,47.64211746767841],[-3.425566939801644,47.64213852809789],[-3.425530930788553,47.641950865053936],[-3.425612742689889,47.64196441753411],[-3.425648470990132,47.64192090639539],[-3.425694554632779,47.64197796995691],[-3.42557480127994,47.64209294057776],[-3.425829981611495,47.64221433830247],[-3.425778766003598,47.6423435930693],[-3.425900684799564,47.64224656459719],[-3.425938060501058,47.64233481293773],[-3.426058614028364,47.642337198865995],[-3.426000902766062,47.64241262670785]]],[[[-3.425680919830685,47.64188138902236],[-3.425705946829138,47.64185091019071],[-3.42560464823614,47.64167587660186],[-3.425679681024027,47.641743987745315],[-3.425699734116622,47.641688697373255],[-3.425652615811446,47.64151970833563],[-3.425571887171855,47.64151512705805],[-3.425548818924747,47.6418776323608],[-3.425451619024584,47.64140435484464],[-3.425125227756334,47.641024986723366],[-3.425139396392285,47.6409428271304],[-3.42556647422496,47.64147027116839],[-3.425717904894178,47.6415070788675],[-3.425797785139822,47.64183681735611],[-3.425680919830685,47.64188138902236]]],[[[-3.425120186329006,47.64091910228603],[-3.424892557888995,47.640757853684576],[-3.425046949214875,47.640929961642435],[-3.424944003005897,47.64096272784077],[-3.424632147921155,47.64057655091105],[-3.424985477009475,47.640752732668126],[-3.425120186329006,47.64091910228603]]],[[[-3.424620322099192,47.64057065411995],[-3.424143568731414,47.64041983450419],[-3.423529273591943,47.63975831001405],[-3.422887580043134,47.639423402450895],[-3.422827703273833,47.63948088641525],[-3.420718123020603,47.63882947700659],[-3.420396464093547,47.6386496481386],[-3.420728151594657,47.6388018322052],[-3.422952867215575,47.63941077451414],[-3.423791218518298,47.639825153697636],[-3.424177979323864,47.64037278406725],[-3.42438466698447,47.64042460994415],[-3.424373843316787,47.6403348980027],[-3.424430983497052,47.640476242564816],[-3.424620322099192,47.64057065411995]]],[[[-3.42000100409241,47.638428556633315],[-3.419600573758427,47.638204683086585],[-3.419244452277207,47.63779984608995],[-3.418607945623822,47.636398996985946],[-3.417853467057699,47.63568195087022],[-3.417870282451367,47.63559974783811],[-3.417793888085842,47.635631046278576],[-3.417701575610085,47.635419389397185],[-3.417607284549413,47.635523919454016],[-3.417523921460135,47.63527564655529],[-3.417260925647351,47.63519981737875],[-3.417096846698657,47.634946957042274],[-3.416986039389878,47.63502530344781],[-3.417028320537524,47.63493266787346],[-3.416668394942415,47.63471768076158],[-3.417362003189526,47.635040729166114],[-3.41759677268822,47.635325820553085],[-3.417671004460356,47.6352765796767],[-3.417759291039343,47.635343965381445],[-3.417744637857494,47.63544411096566],[-3.41790037074703,47.635516814024754],[-3.417911182556238,47.6356065267897],[-3.418053941648068,47.63557157432348],[-3.418012742975413,47.635673181513404],[-3.418848431449038,47.636620555946344],[-3.419287813159599,47.637716181085075],[-3.419606276714924,47.63814115337752],[-3.42000100409241,47.638428556633315]]]]},"properties":{}},{"type":"Feature","geometry":{"type":"Polygon","coordinates":[[[-3.438096965212923,47.626961513810905],[-3.438364802221781,47.62685640765698],[-3.438660007041552,47.62686719236898],[-3.438743140099861,47.62678132025259],[-3.438592826704886,47.626753500281],[-3.438816255964134,47.62672309460037],[-3.438799988262639,47.62658852774058],[-3.438628813568898,47.626498643092084],[-3.438782892490771,47.626336603086564],[-3.438734405378412,47.62626703352594],[-3.438590600246632,47.626293040302755],[-3.438557809517823,47.62613229312346],[-3.438542941045731,47.62634082845188],[-3.438461149807692,47.62632728491629],[-3.438500704041199,47.62643347222034],[-3.438402131814466,47.626502135032496],[-3.438477159601883,47.62657023849116],[-3.438334437960564,47.626605216075845],[-3.438349620055451,47.62673081187146],[-3.438100164979837,47.626545909528545],[-3.4380877211591,47.62666400037704],[-3.43799725452499,47.626578687471614],[-3.437754048925166,47.62655599781997],[-3.437748885710914,47.62640275549671],[-3.437919490466693,47.626266896993386],[-3.437726114855465,47.626214361650554],[-3.437735873773833,47.62629510187311],[-3.437614271649643,47.62628375683684],[-3.437706905816914,47.626387012322866],[-3.437472116463917,47.626544477814264],[-3.437512753186544,47.62665963657739],[-3.438086121229889,47.62687180251655],[-3.438096965212923,47.626961513810905]],[[-3.437679847808183,47.626605251677596],[-3.437594803459312,47.6265647941327],[-3.437686612331107,47.6265506918418],[-3.437679847808183,47.626605251677596]]]},"properties":{}},{"type":"Feature","geometry":{"type":"Polygon","coordinates":[[[-3.441588195688287,47.62534169414788],[-3.441955918058889,47.62506849849596],[-3.441910682966697,47.62502584351547],[-3.442043383106631,47.62501850836077],[-3.442016921057724,47.624026552278494],[-3.441805855772799,47.62349635436026],[-3.44183514963717,47.623738574331206],[-3.441706792416045,47.62378179369592],[-3.441590870424117,47.62370692152584],[-3.441654798509129,47.62379369873558],[-3.441576265144854,47.62380707069583],[-3.441680002538841,47.623891647469456],[-3.441790750490476,47.6238132771954],[-3.441723066589623,47.62391636034513],[-3.441852509089646,47.623882112074064],[-3.441885558398858,47.62393447171628],[-3.441968767201973,47.62429111545623],[-3.441902168026472,47.62440316978948],[-3.441775144496433,47.6243469735448],[-3.441837988670018,47.624424779519025],[-3.441762709317944,47.62446506491833],[-3.441984292662447,47.624750842328375],[-3.441881388053201,47.6247836237238],[-3.441922032947244,47.6248987810571],[-3.441814537890047,47.62500406472321],[-3.44167749790562,47.62497551519799],[-3.441512080718871,47.62526462153929],[-3.441242339454714,47.62524340605759],[-3.440726723308414,47.62539833770069],[-3.441588195688287,47.62534169414788]]]},"properties":{}},{"type":"Feature","geometry":{"type":"MultiPolygon","coordinates":[[[[-3.437749402612722,47.62618598217567],[-3.43769089958335,47.62614405861952],[-3.437844980328813,47.62598201982166],[-3.437755599559548,47.62590567783553],[-3.437898319709834,47.62587070094551],[-3.437772381225154,47.6258234715265],[-3.437720901464293,47.62561860141799],[-3.437872037346525,47.625763780358646],[-3.437928629488785,47.62567937486785],[-3.437509354689776,47.62530516961381],[-3.437424830750142,47.62504793847116],[-3.43750605337984,47.62483573812728],[-3.437318057535173,47.624385539631234],[-3.43707837454773,47.624281375223276],[-3.437034806858737,47.62428752623998],[-3.437199147359622,47.62417536290485],[-3.4371845337131,47.62427551150141],[-3.437343513152759,47.62437510250735],[-3.437586967413163,47.62428940627032],[-3.437785757387487,47.624386797615976],[-3.437800937560542,47.62451239362628],[-3.437711559314919,47.62443605154873],[-3.437461599123004,47.62446792116037],[-3.437482458784366,47.62452998618097],[-3.437556657198878,47.62448073239612],[-3.437549892805434,47.624535292282516],[-3.437763296313689,47.6245325350302],[-3.43774868362777,47.62463268367896],[-3.437688013734775,47.624572817801024],[-3.437520925483263,47.62462720276937],[-3.437541526411168,47.624797654520854],[-3.437650939395644,47.62481870380946],[-3.437609786324002,47.624920318471105],[-3.437752245497629,47.62499372847761],[-3.437725446874261,47.62510358127549],[-3.437842709054138,47.6250790416424],[-3.438051261641228,47.62525717275257],[-3.437761228970989,47.625399628907296],[-3.437970866889491,47.62558673127028],[-3.438000144499517,47.62582895194237],[-3.437749402612722,47.62618598217567]],[[-3.437643399079552,47.6251984238833],[-3.437681299424432,47.62506989579926],[-3.437542918350156,47.62514075700984],[-3.437643399079552,47.6251984238833]]],[[[-3.437008324533068,47.624291265085326],[-3.436763149277356,47.62432587927125],[-3.436604171067021,47.624226287472844],[-3.436484481034098,47.62434127032954],[-3.436593892666359,47.62436232061328],[-3.436383741956591,47.6243919892003],[-3.436397273077065,47.62428286955263],[-3.436211494345435,47.62429312975032],[-3.436066871153728,47.62420177551673],[-3.436123464494273,47.62411737083278],[-3.435725368246194,47.62413935567741],[-3.435811753648131,47.624080399020485],[-3.435747572214484,47.62410200540698],[-3.435638424175198,47.623972567545394],[-3.435768133176427,47.62382993922826],[-3.435712064729533,47.62369757016309],[-3.435783833303931,47.623738761951536],[-3.435826072891355,47.623646119037126],[-3.435837996376073,47.62374480185518],[-3.435982879963242,47.62372776959697],[-3.435950658454482,47.62379276624237],[-3.436055732779447,47.62377793238123],[-3.436008073554807,47.623825719557836],[-3.436126155987814,47.62391853958724],[-3.436278889606075,47.623855918303406],[-3.4363736850765,47.62397711729544],[-3.436683488106831,47.6238877585088],[-3.436820522627792,47.623916313909305],[-3.436438950167008,47.623964481721956],[-3.43648526405688,47.62401611000248],[-3.436294888727292,47.6240988724862],[-3.436081748702548,47.623993240274125],[-3.436053863145133,47.62409412158387],[-3.436201999680732,47.62410400254105],[-3.436209587855038,47.6241668006595],[-3.436367742343139,47.62414903506629],[-3.436415140385662,47.62420963452767],[-3.436493936624091,47.62408787926272],[-3.43666401589013,47.624168795995956],[-3.43664723303788,47.624251002215715],[-3.437008324533068,47.624291265085326]],[[-3.435940116359563,47.62403718614098],[-3.435968002102189,47.62393630485544],[-3.435767870714773,47.62393832601876],[-3.435765440353858,47.6240287704746],[-3.435940116359563,47.62403718614098]],[[-3.436045453067561,47.623913965504755],[-3.435995887739419,47.62383542355801],[-3.43587862744236,47.62385996135268],[-3.436045453067561,47.623913965504755]]]]},"properties":{}}]}