{"type":"FeatureCollection","features":[{"type":"Feature","geometry":{"type":"Polygon","coordinates":[[[-3.447154578209224,47.64373726325706],[-3.447624859059896,47.643648038061286],[-3.447593116785427,47.64349626582714],[-3.447433822389881,47.64350507547666],[-3.447411857436332,47.643434041876766],[-3.447367449709547,47.64350874609985],[-3.447163139723572,47.643366517182436],[-3.447061288639109,47.643408273794364],[-3.446865909514866,47.64322942638217],[-3.446516187744898,47.64332101336185],[-3.446479381861235,47.64345851407307],[-3.446833815361595,47.64373693920077],[-3.446932408574775,47.643668269885964],[-3.446743305801713,47.64365163382365],[-3.446934820903509,47.6435778261173],[-3.446963782298506,47.64348591419732],[-3.446985746676955,47.64355694787951],[-3.447279959343076,47.64355873974357],[-3.447154578209224,47.64373726325706]]]},"properties":{}},{"type":"Feature","geometry":{"type":"Polygon","coordinates":[[[-3.424407773703174,47.6438827842978],[-3.424322425398703,47.643895879642464],[-3.424293138917481,47.64409617156055],[-3.4243828165805,47.64406413749915],[-3.424428850657879,47.64422415564953],[-3.424103182932846,47.64440465572777],[-3.42421371323765,47.64443468856757],[-3.424286869142428,47.64437647254332],[-3.424185222383128,47.64475233717458],[-3.424128078274974,47.64461099280648],[-3.423941939830792,47.64472961897808],[-3.42389374203722,47.6445516583197],[-3.424013218091401,47.64454507517641],[-3.42406552248464,47.64442479250973],[-3.423926563995047,47.64426989447178],[-3.42403276436919,47.644264042764206],[-3.42395094934349,47.64425048919391],[-3.423895971115611,47.644127087036715],[-3.423893519713619,47.64421753030003],[-3.423752905996823,47.6442704321089],[-3.423847996055602,47.64428325436999],[-3.423811131099568,47.64442074786612],[-3.423670516765597,47.644473649570244],[-3.423713876131415,47.64438998321283],[-3.423567850218249,47.644398028886805],[-3.423510708124793,47.644256684190715],[-3.423578453004509,47.64415361268207],[-3.423661350109963,47.64417613769698],[-3.423777069815467,47.64391689879512],[-3.423698502358326,47.64393025859527],[-3.423616975169606,47.643808319146586],[-3.423727790980399,47.643729966808934],[-3.423669279733856,47.64368803661118],[-3.423981956192124,47.64339988347382],[-3.424035851496832,47.64351431445455],[-3.424145869856028,47.643318604854684],[-3.424445207061598,47.64347369579797],[-3.4243519974063,47.64358720203988],[-3.424452784154788,47.64353649405047],[-3.424650539377162,47.64362493560261],[-3.424858607324468,47.64357734607217],[-3.424771095761434,47.643627322857704],[-3.424900312318778,47.64370147938072],[-3.424442471058744,47.643672524761364],[-3.424528615158919,47.64372196270067],[-3.424393415567646,47.643819721178],[-3.424407773703174,47.6438827842978]],[[-3.424061510198896,47.644268804815816],[-3.424099935728501,47.64437774219374],[-3.424155486985663,47.644284373012034],[-3.424061510198896,47.644268804815816]],[[-3.423751028286638,47.64414410412179],[-3.423871872527401,47.644038106674685],[-3.423714737264329,47.64406482634787],[-3.423751028286638,47.64414410412179]],[[-3.423928219584989,47.644062094401164],[-3.423950726662944,47.643916361121995],[-3.423832334355401,47.643931915386204],[-3.423928219584989,47.644062094401164]],[[-3.424126995864791,47.644602021629716],[-3.42408962157039,47.64451377281393],[-3.424070648147715,47.644578034005846],[-3.423962282388942,47.64456594339003],[-3.424126995864791,47.644602021629716]],[[-3.424265853687298,47.64353776396688],[-3.424319238942052,47.64342645230462],[-3.424206259827829,47.643486862853145],[-3.424265853687298,47.64353776396688]],[[-3.42427343057852,47.64360056222892],[-3.424331145567295,47.64352513528693],[-3.424228193912277,47.643557900810364],[-3.42427343057852,47.64360056222892]],[[-3.424360085376687,47.64387574277215],[-3.424390168252516,47.64379280764383],[-3.424301573473473,47.6438338128942],[-3.424360085376687,47.64387574277215]],[[-3.424534312838117,47.643658432933215],[-3.424580917583644,47.64360167975179],[-3.424460361265812,47.64359929230043],[-3.424534312838117,47.643658432933215]]]},"properties":{}},{"type":"Feature","geometry":{"type":"Polygon","coordinates":[[[-3.427284932223444,47.64330814554233],[-3.427223449845797,47.643130917964605],[-3.427299849416908,47.64309961347999],[-3.427223729756266,47.64302253226956],[-3.427142718633916,47.64312633777625],[-3.427140832939255,47.643000009768556],[-3.427030303958756,47.642969979675314],[-3.427197460333368,47.642915610230524],[-3.427134615731255,47.64283779712432],[-3.427232429625398,47.64265178752934],[-3.427068802934023,47.642624684789546],[-3.427113238339718,47.642549988249414],[-3.426980772955613,47.642448920648334],[-3.426678706519021,47.64249266525597],[-3.426640246694228,47.64239544599581],[-3.426726390768897,47.642444882347604],[-3.426854805010404,47.642401679863426],[-3.426713397156264,47.642337228390616],[-3.426558433871148,47.64238189423815],[-3.426570344404134,47.642480577045845],[-3.426385864788196,47.64239140695357],[-3.426402106002736,47.642525974440396],[-3.426249307360142,47.64258858220383],[-3.426374192462618,47.6426268524718],[-3.426205953433195,47.64267224958045],[-3.426202423291494,47.642753721794485],[-3.426074289917997,47.642688537842645],[-3.426081868816798,47.64275133601512],[-3.425919325077783,47.64273320283437],[-3.425816941457445,47.642549198340085],[-3.425725101925829,47.64256329118454],[-3.425735928317135,47.642653002896914],[-3.425660894179329,47.64258489182176],[-3.425703399904736,47.64282638178757],[-3.425475848808082,47.64271249173336],[-3.42533740577819,47.642783337836086],[-3.425388906511778,47.64254569757478],[-3.425585860233065,47.64251678069601],[-3.425647619573868,47.64258562347611],[-3.425734045969474,47.642526674835445],[-3.425627049769553,47.642415171196625],[-3.425486725955447,47.64235968941304],[-3.425452315235696,47.64240674018687],[-3.425449350982899,47.64227144092926],[-3.425365089830297,47.64234833171892],[-3.425245902784625,47.642246530518044],[-3.42533477794502,47.64209713877516],[-3.425431746124159,47.64223628785714],[-3.425510310653355,47.642222926879775],[-3.425437726102465,47.64206437225183],[-3.425564258548139,47.641894843069736],[-3.425451619024584,47.64140435484464],[-3.425035041845,47.64083127859996],[-3.424892557888995,47.640757853684576],[-3.425046949214875,47.640929961642435],[-3.424944003005897,47.64096272784077],[-3.424629809755749,47.64057365548547],[-3.424143568731414,47.64041983450419],[-3.423529273591943,47.63975831001405],[-3.422887580043134,47.639423402450895],[-3.422827703273833,47.63948088641525],[-3.420718123020603,47.63882947700659],[-3.419806953629239,47.63836490306442],[-3.419464888904105,47.638076692989735],[-3.419244452277207,47.63779984608995],[-3.418607945623822,47.636398996985946],[-3.417853467057699,47.63568195087022],[-3.417870282451367,47.63559974783811],[-3.417793888085842,47.635631046278576],[-3.417701575610085,47.635419389397185],[-3.417607284549413,47.635523919454016],[-3.417523921460135,47.63527564655529],[-3.417376838465059,47.63527471324871],[-3.417215701706914,47.63515715305943],[-3.417181888863008,47.634987429335084],[-3.416986039389878,47.63502530344781],[-3.417028320537524,47.63493266787346],[-3.416790791749074,47.634846404979875],[-3.416692778565376,47.6346982769024],[-3.416389968522884,47.63462463765333],[-3.416176954190969,47.63407645375219],[-3.416322428330423,47.63306602754927],[-3.416097531943909,47.632419158700394],[-3.416383989522033,47.63280074555165],[-3.416414254002243,47.63305194202632],[-3.416236657714643,47.63368484317708],[-3.416436574040117,47.634567887454736],[-3.417501218210533,47.6350872496354],[-3.417782593396411,47.63531559002211],[-3.417873824839076,47.635518275573894],[-3.417938027235456,47.63549667913685],[-3.417906857828193,47.635570641684346],[-3.418074000321387,47.635516285083504],[-3.41812000811055,47.635676306428884],[-3.418913716148404,47.636607930248346],[-3.419353099095261,47.63770355514874],[-3.419736554354585,47.63822428707066],[-3.420104087219536,47.63850206303759],[-3.420685085255907,47.6387771117795],[-3.422907635156459,47.639368112491454],[-3.423816684145539,47.639814719605205],[-3.424246514384574,47.640387069001896],[-3.424370310532685,47.64041637026029],[-3.424344048109655,47.640309447434966],[-3.424440213628479,47.640331240435216],[-3.424441010457217,47.64044859746838],[-3.424747111948339,47.640549129196145],[-3.425505283062822,47.64118465672271],[-3.425745253280709,47.641622972493195],[-3.425872301049487,47.64167918566773],[-3.425836243027218,47.641934036921775],[-3.425703498599285,47.64194135359903],[-3.425833795014382,47.64202448032893],[-3.425866557180309,47.642185229756734],[-3.426026933870809,47.642185420675226],[-3.426038843377077,47.64228410354718],[-3.426115242430741,47.64225279982336],[-3.426081915026023,47.642308821954316],[-3.426323021986844,47.64231359338965],[-3.426390758967911,47.64221052014636],[-3.426561161924017,47.64218306509185],[-3.426567658551456,47.64223689208405],[-3.426656248938012,47.64219588508145],[-3.426655967879296,47.64230427082171],[-3.426928235753413,47.64223507638536],[-3.427286087586541,47.64243208873197],[-3.427505257196679,47.642365820302835],[-3.427380092305275,47.6424359369732],[-3.427325072116978,47.64275505037354],[-3.427465678299355,47.64270214422418],[-3.427450517276662,47.64257654805302],[-3.427802711580663,47.642394574679656],[-3.427756357816994,47.64278545750063],[-3.427551544391135,47.64285996567064],[-3.42751035817576,47.64296157582493],[-3.427449678930734,47.64290170519687],[-3.427284932223444,47.64330814554233]],[[-3.425626200315385,47.642740328354606],[-3.425648702198788,47.642594594648195],[-3.425539257503793,47.6425735343103],[-3.425501315483782,47.6427020572894],[-3.425626200315385,47.642740328354606]],[[-3.425701899347954,47.64170663972477],[-3.425627149729564,47.641530142818986],[-3.425574851693314,47.64165042636574],[-3.425701899347954,47.64170663972477]],[[-3.426173199572208,47.64261809805757],[-3.426218991176266,47.642337389520854],[-3.426012011958702,47.64239395267414],[-3.426171620731426,47.64261807854416],[-3.426065628341209,47.64261676849954],[-3.426155020375846,47.64269311877027],[-3.426199457117597,47.64261842258031],[-3.426173199572208,47.64261809805757]],[[-3.427326398837873,47.64309814979476],[-3.427429103248532,47.64273125326268],[-3.427274139418262,47.6427759200503],[-3.427244864630513,47.642976212824784],[-3.427137584288368,47.64297309629929],[-3.427338870304797,47.642980061098086],[-3.427326398837873,47.64309814979476]]]},"properties":{}},{"type":"Feature","geometry":{"type":"Polygon","coordinates":[[[-3.415631715440715,47.63132497960446],[-3.415953008954235,47.63110861665477],[-3.416564243329224,47.63041571998306],[-3.416516862314289,47.63035511266168],[-3.416657747842455,47.630193832790596],[-3.416609888854506,47.62990748138261],[-3.4168046389358,47.62986063648723],[-3.416715281767553,47.6297842785558],[-3.416929308818437,47.629564786533685],[-3.417006475330473,47.62965084629965],[-3.416895678883417,47.629729192833864],[-3.417027313232222,47.629712914805594],[-3.417114329039729,47.62943719928967],[-3.41727821028328,47.62935592971744],[-3.417196720022262,47.629233984868755],[-3.417366605024059,47.62898079881659],[-3.417298086450023,47.62896650976198],[-3.417139310719602,47.629201022398824],[-3.417167234691561,47.62910014587306],[-3.417010440623512,47.62901847028053],[-3.416972487703153,47.62914699139133],[-3.417091930129943,47.629140415272715],[-3.417027434495175,47.62927039776345],[-3.417104901124965,47.62924807103453],[-3.417140091330188,47.629318380157216],[-3.416980533594026,47.629435534791476],[-3.417015723759021,47.62950584394484],[-3.416818813404425,47.629534746571835],[-3.416608808006101,47.62989851006787],[-3.416463901491717,47.62991551823872],[-3.416281818385948,47.63017840476723],[-3.416498488052532,47.630202600324864],[-3.416319169733603,47.630266656735714],[-3.416338926264958,47.63031975402927],[-3.416442938057048,47.63029596654714],[-3.416226744481275,47.630497514964354],[-3.416327212261527,47.630555200014165],[-3.416216412940221,47.63063354586754],[-3.416280308065074,47.63072033665154],[-3.415631715440715,47.63132497960446]],[[-3.416426901195782,47.63049552729105],[-3.416499568888551,47.630211571639215],[-3.416560221424228,47.630271448347045],[-3.416426901195782,47.63049552729105]],[[-3.416596014434731,47.63012498481719],[-3.416422402383168,47.6301255115633],[-3.416499091292636,47.62998582753029],[-3.416596014434731,47.63012498481719]]]},"properties":{}},{"type":"Feature","geometry":{"type":"Polygon","coordinates":[[[-3.438800895042462,47.62526994528731],[-3.438804404799756,47.62518847195691],[-3.438921666670103,47.62516393124167],[-3.43887318044203,47.62509436169667],[-3.438991526586063,47.625078792040775],[-3.438920009802453,47.62492921551552],[-3.439009390601989,47.62500555664898],[-3.439122569503238,47.62483674446836],[-3.439439964986637,47.62481017631773],[-3.439673656288764,47.62464373560503],[-3.439327552864657,47.62465382856895],[-3.43932729762595,47.624762215321404],[-3.439220053183791,47.62475910986047],[-3.439276642129548,47.62467470367294],[-3.439167228799203,47.62465365590567],[-3.438948146389026,47.62471994681693],[-3.43909545638412,47.6246124662156],[-3.438971688805594,47.62458318032098],[-3.438971944765463,47.6244747935593],[-3.439288508938952,47.62433086791294],[-3.43862692674291,47.62449385558045],[-3.438464120896629,47.62414160822455],[-3.438333591210352,47.62416688159593],[-3.438307308814092,47.624059961013316],[-3.43821550438987,47.62407406381014],[-3.438289701494337,47.62402480954809],[-3.438185711659932,47.6240486165589],[-3.438266672356387,47.623944802372584],[-3.438000192017673,47.623950492813734],[-3.437935753565211,47.62408048719163],[-3.438028900276373,47.623966968969974],[-3.438180289885146,47.62400376084924],[-3.438122615571072,47.624079195392525],[-3.438250718987344,47.62414436675788],[-3.438242613538567,47.624298342329254],[-3.438125353257433,47.6243228823737],[-3.437940090826165,47.62411637176711],[-3.438008092868488,47.62434742230008],[-3.438135112433859,47.62440362264148],[-3.438059830317314,47.62444390565462],[-3.438105630753943,47.62471230679086],[-3.438312271297886,47.624764108447536],[-3.438169554377359,47.624799085863266],[-3.438163359732639,47.62507939038499],[-3.438287128018178,47.62510867712869],[-3.438178798564321,47.62509659957624],[-3.438114359163304,47.62522659397603],[-3.438281191321149,47.625280594896786],[-3.438445027573149,47.6251992954571],[-3.438429845689359,47.62507369957486],[-3.43856688418883,47.625102252909016],[-3.438427676854649,47.62505575730515],[-3.438504043985478,47.625024445201966],[-3.438390549746521,47.62485912543354],[-3.438607464536593,47.62477489330392],[-3.438639426767689,47.62481828270626],[-3.438471254296565,47.62486369789343],[-3.438579583343956,47.624875775176086],[-3.438680636045419,47.62515918576255],[-3.438792475508835,47.62508978951503],[-3.438800895042462,47.62526994528731]],[[-3.43890756817223,47.62504730654965],[-3.438745073986081,47.62502919104583],[-3.43870985815386,47.62495888827914],[-3.43885691309338,47.624959794731964],[-3.43890756817223,47.62504730654965]],[[-3.4387729549461,47.624928309142135],[-3.438662456841128,47.62489828977234],[-3.438663797881641,47.62479887416284],[-3.438869354815265,47.62484170369794],[-3.4387729549461,47.624928309142135]],[[-3.438795413429981,47.62478257156341],[-3.438671645621671,47.624753285353414],[-3.438684087705269,47.62463519432657],[-3.438584691345486,47.62458649946735],[-3.438805942598693,47.62453815150093],[-3.438869867151997,47.62462493019783],[-3.438961672350696,47.62461082689065],[-3.438795413429981,47.62478257156341]],[[-3.438430616873357,47.62474853935734],[-3.438430873932603,47.624640152606084],[-3.438565742455001,47.624650763674495],[-3.438430616873357,47.62474853935734]],[[-3.438212048166784,47.624598055383494],[-3.43813025968293,47.62458451160406],[-3.438189018897919,47.62451804821626],[-3.438212048166784,47.624598055383494]]]},"properties":{}},{"type":"Feature","geometry":{"type":"Polygon","coordinates":[[[-3.440826703565708,47.62567277524345],[-3.440742163058711,47.62541554655028],[-3.441073916163444,47.62539721170339],[-3.441017329293606,47.6254816187303],[-3.44112808151674,47.62540324914869],[-3.441577095493526,47.62536036982691],[-3.442058573476565,47.625144103776734],[-3.441996813151659,47.62507526905169],[-3.442162227126453,47.62478616199575],[-3.442072842185516,47.62470982326644],[-3.442102051319995,47.62450952488821],[-3.441989382202193,47.62446156645241],[-3.441990717035936,47.62436215078247],[-3.442071421142932,47.62436672075596],[-3.441997726683774,47.62419920385054],[-3.442103049728756,47.62407597776179],[-3.441893903308309,47.62367210905073],[-3.44192094260267,47.62345386839079],[-3.441837819837982,47.62353974291585],[-3.441780401446722,47.623506792461384],[-3.441822964900952,47.623748278939715],[-3.441625004296215,47.62376825235798],[-3.441583275984876,47.623644123742295],[-3.441491473141295,47.623658229117055],[-3.441455752772415,47.62380470075582],[-3.441568169339337,47.62396104652458],[-3.4417509413407,47.623815477672906],[-3.44180944500657,47.623857399245686],[-3.441723066589623,47.62391636034513],[-3.441885558398858,47.62393447171628],[-3.441968767201973,47.62429111545623],[-3.441902168026472,47.62440316978948],[-3.441839323784784,47.62432536384893],[-3.44173533494802,47.62434917401639],[-3.441834733739801,47.62439786620034],[-3.441762709317944,47.62446506491833],[-3.441838573369842,47.62465052415944],[-3.441976697611881,47.62468804460411],[-3.441881388053201,47.6247836237238],[-3.441922032947244,47.6248987810571],[-3.441814537890047,47.62500406472321],[-3.44167749790562,47.62497551519799],[-3.441512080718871,47.62526462153929],[-3.441111808389722,47.625268682519476],[-3.440737823808574,47.625379662102844],[-3.440727555719707,47.62551569552613],[-3.440625733660692,47.62555744691365],[-3.440075979316711,47.62565104459619],[-3.440256084992811,47.62570430938433],[-3.440551536581401,47.62560670262083],[-3.440826703565708,47.62567277524345]],[[-3.441577350065786,47.62381604180726],[-3.441542131303931,47.62374573985068],[-3.44165262864251,47.62377575651395],[-3.441577350065786,47.62381604180726]]]},"properties":{}},{"type":"Feature","geometry":{"type":"Polygon","coordinates":[[[-3.438300103813778,47.62709478866172],[-3.438253785497494,47.627043161182634],[-3.438729356677987,47.62699882665806],[-3.438892369120803,47.62680016890784],[-3.438973588582823,47.626587967734864],[-3.438845990869652,47.626306023931804],[-3.439078861774106,47.62602222673615],[-3.438924212263646,47.62595852268161],[-3.438932315998469,47.625804547194434],[-3.439489921103856,47.625665366059174],[-3.439842539057344,47.625709099332845],[-3.440074894610801,47.62564207347932],[-3.439483413463065,47.62561153932488],[-3.439184706222234,47.625682230011556],[-3.439012449260697,47.625583374757916],[-3.438783089746715,47.62578569858057],[-3.438762799789352,47.62594937833715],[-3.438561319702828,47.62605081983656],[-3.438541856583446,47.62633185732394],[-3.438461149807692,47.62632728491629],[-3.438499619584129,47.62642450109245],[-3.438402131814466,47.626502135032496],[-3.438477159601883,47.62657023849116],[-3.438334437960564,47.626605216075845],[-3.438375076589735,47.62672037453533],[-3.438282183181347,47.62672550623761],[-3.438284609400831,47.626635061854955],[-3.438100164979837,47.626545909528545],[-3.4380877211591,47.62666400037704],[-3.43799725452499,47.626578687471614],[-3.437754048925166,47.62655599781997],[-3.437898629618468,47.62620483210629],[-3.438089836595711,47.626239424898706],[-3.438122056976634,47.62617442774498],[-3.438048372415596,47.62600690850373],[-3.43788479125526,47.6259798206779],[-3.438000144499517,47.62582895194237],[-3.437970866889491,47.62558673127028],[-3.437761228970989,47.625399628907296],[-3.438051261641228,47.62525717275257],[-3.437842709054138,47.6250790416424],[-3.437725446874261,47.62510358127549],[-3.437752245497629,47.62499372847761],[-3.437626309211134,47.62494649887979],[-3.437650939395644,47.62481870380946],[-3.437541526411168,47.624797654520854],[-3.437500891043883,47.62468249565739],[-3.437674743773386,47.62457355082862],[-3.43776086930652,47.624622979499904],[-3.437785757387487,47.624386797615976],[-3.437586967413163,47.62428940627032],[-3.437343513152759,47.62437510250735],[-3.4371845337131,47.62427551150141],[-3.437199147359622,47.62417536290485],[-3.436809724143309,47.62426912064528],[-3.436493936624091,47.62408787926272],[-3.436415140385662,47.62420963452767],[-3.436367742343139,47.62414903506629],[-3.4361952339505,47.62415856235956],[-3.436239641214488,47.62408386163586],[-3.436501786112647,47.62404229058242],[-3.436453304056973,47.62397271999278],[-3.436632316361488,47.62401701925656],[-3.436649099163147,47.62393481302906],[-3.436835960690208,47.62393352328833],[-3.437031191016135,47.623669870930705],[-3.436819698830667,47.62379895595961],[-3.436805084575329,47.623899104528086],[-3.4363736850765,47.62397711729544],[-3.436278889606075,47.623855918303406],[-3.436069824711744,47.623894557493564],[-3.436055732779447,47.62377793238123],[-3.435950658454482,47.62379276624237],[-3.436102307919481,47.62372117402136],[-3.43601618537698,47.623671744104186],[-3.435837996376073,47.62374480185518],[-3.435945762783837,47.62353113681405],[-3.435724513114034,47.6235794793875],[-3.435572863544898,47.62365107112319],[-3.435755947316461,47.623839643203375],[-3.435618650797253,47.62391947334393],[-3.435581304538125,47.624273745549424],[-3.435807977014431,47.6242702590794],[-3.435864570836919,47.62418585452385],[-3.436080141044775,47.62420104267168],[-3.436152732915947,47.62435959215095],[-3.436250220044129,47.62428196000274],[-3.436388339404382,47.62431948706306],[-3.436322812530481,47.62444050936973],[-3.436702220271548,47.62437439964025],[-3.436817052722103,47.6244403054838],[-3.437032884124739,47.62434710510716],[-3.43735435538064,47.62446481398591],[-3.43739560377132,47.625248235623864],[-3.437451678021533,47.62538060377527],[-3.437724412892848,47.625537128134695],[-3.437681090800486,47.625620800506304],[-3.437548388564108,47.62562813070264],[-3.437635341299178,47.625794917270795],[-3.437870694807222,47.62586319590969],[-3.437699265454487,47.625881696552234],[-3.437761847070466,47.62606789133415],[-3.43766761181328,47.62617243808334],[-3.437480742468928,47.62617372915311],[-3.437448521307553,47.62623872612996],[-3.437627542037003,47.626283023816754],[-3.437346742493442,47.62672299237388],[-3.437562064535998,47.626846564398576],[-3.437558552773517,47.62692803762208],[-3.437658211196126,47.6268683466706],[-3.43778415204494,47.626915576187315],[-3.437708866120932,47.62695585892216],[-3.437955326653366,47.627005462054306],[-3.437964001682747,47.62707723109499],[-3.438300103813778,47.62709478866172]],[[-3.437679847808183,47.626605251677596],[-3.437594803459312,47.6265647941327],[-3.437686612331107,47.6265506918418],[-3.437679847808183,47.626605251677596]],[[-3.438665884570441,47.62625275698584],[-3.438627414614975,47.62615554085584],[-3.43872898291724,47.62622217789295],[-3.438665884570441,47.62625275698584]],[[-3.437643399079552,47.6251984238833],[-3.437542918350156,47.62514075700984],[-3.437681299424432,47.62506989579926],[-3.437643399079552,47.6251984238833]],[[-3.437724570749823,47.62454370527801],[-3.437596467017593,47.624478533348935],[-3.437701542235013,47.62446369801243],[-3.437724570749823,47.62454370527801]],[[-3.436201999680732,47.62410400254105],[-3.436052779146786,47.62408515042246],[-3.436081748702548,47.623993240274125],[-3.436190075442895,47.62400531977839],[-3.436201999680732,47.62410400254105]],[[-3.435884869010358,47.624022175122356],[-3.435758936668019,47.623974943487525],[-3.435969086083267,47.623945276018326],[-3.435884869010358,47.624022175122356]]]},"properties":{}},{"type":"Feature","geometry":{"type":"MultiPolygon","coordinates":[[[[-3.444540470461424,47.62332015327253],[-3.444595375960211,47.62303506845335],[-3.44448970957532,47.622824165189776],[-3.444604792820055,47.62278167656111],[-3.44449212510061,47.62273372049695],[-3.444609378964004,47.62270917404066],[-3.444576572313354,47.62254842825524],[-3.444704327448502,47.622279460834555],[-3.444861741545261,47.62258684439625],[-3.444818188952986,47.6227789064164],[-3.444756427806114,47.62271007306689],[-3.444695507909777,47.62275859764567],[-3.444772709340238,47.62284463936521],[-3.444672225340335,47.622786978555354],[-3.444679823291275,47.62284977616567],[-3.444610219868846,47.62282653200056],[-3.444665576287458,47.62328405740949],[-3.444540470461424,47.62332015327253]]],[[[-3.444529375934045,47.623377758806505],[-3.444608508316669,47.62358523993285],[-3.444463627869225,47.62360228289199],[-3.444471225690823,47.623665080489566],[-3.444561942339464,47.62364200168835],[-3.44458932248308,47.62375789196987],[-3.444443111311458,47.623874350631645],[-3.444268329936334,47.62342342930468],[-3.444085811713983,47.62346061529578],[-3.444049013263371,47.62359811665337],[-3.443936344320079,47.6235501600732],[-3.443946603854166,47.62341412623042],[-3.443855887326739,47.623437204556424],[-3.443871819530657,47.62323763933347],[-3.443737792519049,47.62334439231922],[-3.443816570778868,47.623222632060546],[-3.443948180867192,47.623206323641575],[-3.443969887082896,47.62338574547455],[-3.444108009550392,47.62342326342318],[-3.444152405130021,47.62334855966316],[-3.444311639920643,47.6233397543956],[-3.444395108949609,47.623588009693314],[-3.444496924304023,47.62354625497761],[-3.444529375934045,47.623377758806505]]]]},"properties":{}},{"type":"Feature","geometry":{"type":"Polygon","coordinates":[[[-3.418103095448544,47.623341118772046],[-3.418146446375613,47.623257453566424],[-3.418042190925392,47.623313212225355],[-3.418015909236595,47.62328270424227],[-3.417926262663463,47.6233147337612],[-3.418018369635226,47.623192260123375],[-3.417911129590506,47.623189135094464],[-3.417946316863566,47.62325944419358],[-3.41780575245782,47.6233123394186],[-3.417836914847847,47.62323837643041],[-3.417725351117301,47.62319936589391],[-3.417868077151525,47.62316441343112],[-3.417708056760187,47.623055824521416],[-3.417764976920214,47.622863041884436],[-3.417924996849461,47.622971630726894],[-3.418012779466399,47.622813271730934],[-3.417776383910693,47.62273598163707],[-3.417922351442349,47.622727943110974],[-3.417941324500215,47.62266368219155],[-3.418046103167899,47.62275725133753],[-3.418151478650185,47.622634046761405],[-3.417964507746336,47.62307782516498],[-3.418120204859991,47.623150528394746],[-3.418280822300201,47.62304234315566],[-3.418246119648472,47.62319777906651],[-3.418352278724549,47.62319193245824],[-3.418323279079779,47.623283838244696],[-3.418440546177766,47.62325931806814],[-3.418347359050417,47.623372820705896],[-3.418656891540126,47.62339189648784],[-3.418801185832886,47.62359165908385],[-3.418761863007812,47.62381959656856],[-3.418639378843329,47.624133391998555],[-3.418507758744407,47.624149671890244],[-3.418501758455247,47.6243215887324],[-3.418412408131269,47.6242452318814],[-3.418265057511462,47.62435268641356],[-3.41831027313737,47.624395350564455],[-3.418189760475035,47.6243929566194],[-3.418254247386831,47.624262973160434],[-3.418106113736011,47.6242530694411],[-3.418079759284705,47.624588662526165],[-3.417969870727148,47.62434185014318],[-3.417774060869506,47.624379725784976],[-3.417708491723521,47.62450073764152],[-3.417874220012425,47.624545796399424],[-3.417701707041831,47.62455529637612],[-3.417760192629787,47.62459722997718],[-3.417635056601221,47.62466733685174],[-3.41770573160116,47.62469956839771],[-3.417802165232419,47.624612980333964],[-3.417830568727308,47.624737848151405],[-3.41759956945611,47.62470541441379],[-3.417523971911812,47.62485407087889],[-3.417363647321644,47.62485386828723],[-3.417354100789479,47.625107257698076],[-3.417356862242628,47.6249084269919],[-3.417323536474958,47.62496444712669],[-3.417288348898291,47.624894137901585],[-3.417080347025159,47.624941714410944],[-3.417097760974832,47.62464273764011],[-3.417291410565541,47.62458692047136],[-3.417315189472134,47.62478428978461],[-3.417352357454917,47.62453841023486],[-3.417454977002365,47.62461403715644],[-3.417433059715226,47.624542997231906],[-3.417702006187602,47.62444690966346],[-3.417427955030094,47.62438975385672],[-3.417399552662172,47.62426488591899],[-3.417579930420175,47.62420979898371],[-3.417544144075332,47.62435626326135],[-3.417719899198395,47.624373677506625],[-3.417766494352222,47.62431692647739],[-3.417604009569428,47.62429878155584],[-3.41769828080931,47.62419425089626],[-3.417945790948624,47.624252867648465],[-3.417797956332281,47.62413457680755],[-3.417983738046206,47.62412434589751],[-3.417998871555109,47.62424994449446],[-3.41783392614234,47.624322243962304],[-3.418072789163734,47.62430908980855],[-3.41814838440796,47.62416043294659],[-3.418046845722333,47.62409377794487],[-3.418296815745497,47.62406194987712],[-3.418097764203371,47.62407291208903],[-3.418076927258566,47.62401084359373],[-3.418279221602083,47.62402679539649],[-3.418332599827979,47.62391548534673],[-3.418558190849622,47.62390306102635],[-3.418371924556562,47.62368754801776],[-3.418545515651427,47.62368701837247],[-3.41856340725038,47.6236137860578],[-3.418344601365882,47.62357165159249],[-3.418302927342047,47.623447514652284],[-3.418186740750726,47.6234810060181],[-3.418051325421827,47.62332381560823],[-3.418103095448544,47.623341118772046]],[[-3.417608516081228,47.62466879834877],[-3.41764184136527,47.62461277812415],[-3.41755003053401,47.62462686467334],[-3.417608516081228,47.62466879834877]]]},"properties":{}},{"type":"Feature","geometry":{"type":"MultiPolygon","coordinates":[[[[-3.431540333314092,47.62176570305078],[-3.431571610971643,47.621821925728796],[-3.431399109243189,47.6218314459497],[-3.431339858532192,47.62187388645651],[-3.431366071521169,47.62177908328411],[-3.431264249268335,47.621820826590664],[-3.431334963904028,47.62187739241005],[-3.43115321817679,47.622007573850475],[-3.431082538622728,47.62197535039736],[-3.431191131881739,47.62187904766206],[-3.431151595562159,47.6217728576345],[-3.43099886188945,47.62183547228042],[-3.43086427439149,47.62171646556227],[-3.430950661241071,47.62165751242739],[-3.430734019709015,47.62163334357048],[-3.430672590671984,47.621704342415455],[-3.430640960728663,47.62164365038484],[-3.430769495443287,47.62159526195824],[-3.431054649643841,47.62163371182904],[-3.431002383327911,47.62175399904104],[-3.431187071091269,47.62173477589814],[-3.431246107444953,47.62155992899967],[-3.431379883595286,47.6215615771647],[-3.431321119157398,47.62162803722768],[-3.431432689537435,47.62166703480848],[-3.431259105140995,47.62166758360794],[-3.431242314752261,47.62174978915651],[-3.431378257708728,47.621769379756756],[-3.431534511365236,47.621625291351805],[-3.431636062194521,47.621691934711606],[-3.431560778998166,47.621732213591834],[-3.431832665155087,47.6217713938929],[-3.431880326283244,47.62172360836969],[-3.431769838687675,47.621693582429856],[-3.4318551412572,47.62162565741279],[-3.431985667796634,47.621600391248535],[-3.432101571742424,47.62167527303227],[-3.432187957159,47.621616318980976],[-3.432138399639376,47.621537775304624],[-3.432249970427783,47.62157677210648],[-3.432079909637366,47.62193836765827],[-3.432013019591925,47.62171628459832],[-3.431800439774279,47.62183638945863],[-3.431540333314092,47.62176570305078]],[[-3.431529094997397,47.62176264891385],[-3.431468976794975,47.621746311102676],[-3.43139477656461,47.62179556108931],[-3.431529094997397,47.62176264891385]]],[[[-3.430639103369959,47.62164008645125],[-3.430624615980589,47.621612287768066],[-3.430524149582987,47.6215546147505],[-3.430422327099971,47.62159635732786],[-3.430384958505036,47.621508109476515],[-3.430141779241451,47.62148540391577],[-3.430112800820208,47.621577312708986],[-3.429920532794823,47.62153373554539],[-3.42988586501407,47.6216891750334],[-3.429816269547378,47.62166592203854],[-3.429852020419546,47.62151945380013],[-3.430008003320239,47.621483754332544],[-3.430121738338416,47.621540695627075],[-3.430148550819478,47.62143084437315],[-3.430058914636248,47.621462883234486],[-3.429991759417947,47.621349185884334],[-3.429950594442471,47.621450798028036],[-3.429853377782111,47.6214200381198],[-3.429886962577918,47.62125562738832],[-3.429977407230544,47.62134094680834],[-3.43004402761465,47.6212288990996],[-3.430278541905829,47.62117983504141],[-3.430749462650239,47.621208034888525],[-3.430342448576191,47.62126661855458],[-3.430438308971309,47.621396793751565],[-3.430360859311677,47.62141912941288],[-3.430323490942406,47.62133088153385],[-3.430178338257309,47.62145629370859],[-3.430377377560232,47.621445310894025],[-3.430383875511829,47.6214991382506],[-3.430402833132678,47.621434875267084],[-3.430604038366549,47.621441834518244],[-3.430585080985431,47.621506097534194],[-3.430738624592034,47.62156084155304],[-3.430639103369959,47.62164008645125]]],[[[-3.430678588684251,47.6217158514786],[-3.430740518043094,47.621687170902],[-3.430804426071768,47.62177395413981],[-3.430711540543124,47.621779079834255],[-3.430678588684251,47.6217158514786]]]]},"properties":{}},{"type":"Feature","geometry":{"type":"Polygon","coordinates":[[[-3.42858597001698,47.62242918152884],[-3.428608732248435,47.62217505885675],[-3.428508544161329,47.62200899724667],[-3.428660198538832,47.621937414623126],[-3.428596293800164,47.62185063021934],[-3.428676187099398,47.62173785132295],[-3.428566783968473,47.62171679359405],[-3.428543216160047,47.62185355819303],[-3.428428122135257,47.62189603101501],[-3.428450581027012,47.622192813961625],[-3.428333598417835,47.62210895733259],[-3.42821092518797,47.62208863124009],[-3.428180860478453,47.6221715682825],[-3.427916831496114,47.62208679133953],[-3.428085004196763,47.62204139128451],[-3.428005665620212,47.6219373960091],[-3.427900592681568,47.621952222642165],[-3.427900314255802,47.62206060951899],[-3.427533133189152,47.621674468831365],[-3.427515254544641,47.621747702592536],[-3.427368208647241,47.621746781858796],[-3.427360910736724,47.621575596191725],[-3.427300255967192,47.6215157248245],[-3.427198431037652,47.621557464591994],[-3.42712695201413,47.621407880576875],[-3.426837191690342,47.62144192298291],[-3.426767357659815,47.621084536159415],[-3.426709951211911,47.621051578255276],[-3.426677720028952,47.62111657243142],[-3.42661381949559,47.62102978690636],[-3.42671187608047,47.62073538871026],[-3.426784716101464,47.62078555735408],[-3.42674843645292,47.62070627956556],[-3.426870023562657,47.6207176359465],[-3.42683210027961,47.62084616080861],[-3.426942583344034,47.62087619143258],[-3.426919011745826,47.62101295576283],[-3.427004039159358,47.62105342119581],[-3.427129434398477,47.62087491721895],[-3.427039797336851,47.6209069537723],[-3.427009209517637,47.62076414542832],[-3.42692281976132,47.620823095674844],[-3.426915242986321,47.620760296845624],[-3.427043604915231,47.62071709367006],[-3.42702680833433,47.62079929865259],[-3.427130796814632,47.620775501537445],[-3.426989726178139,47.620602662729056],[-3.426820474701261,47.620639089977594],[-3.426803156719459,47.62049554976409],[-3.426702415701931,47.620546260384515],[-3.426764151066192,47.62061510335559],[-3.426567559908067,47.62053563559529],[-3.426590288963946,47.6207240321648],[-3.426394498492703,47.620761922328604],[-3.426430777653467,47.62084120022482],[-3.426274794238245,47.62087689492658],[-3.426303215562359,47.62100176092262],[-3.426130433530774,47.62111966029117],[-3.426213014098737,47.621250570681525],[-3.426332437719429,47.621243985087446],[-3.426360340158089,47.62114310595174],[-3.42646865891471,47.62115519448989],[-3.426609729324274,47.62132803387864],[-3.426670664025474,47.621279518698906],[-3.426709108693382,47.62137673900951],[-3.426757856435426,47.62133792682785],[-3.426796020639107,47.62154353400983],[-3.426965275000081,47.621507106813645],[-3.427081171701212,47.62158199358297],[-3.427071429758654,47.62150125227531],[-3.427199513496741,47.62156643584717],[-3.427244454147117,47.62171748349452],[-3.427156980651469,47.62176746263163],[-3.427685033882764,47.62193701938029],[-3.427727811101584,47.622070124316316],[-3.427935513940699,47.6221309156489],[-3.428004830979738,47.62226255662477],[-3.428127782496462,47.6221744960669],[-3.428437839539174,47.62241929090375],[-3.42858597001698,47.62242918152884]],[[-3.426582670554803,47.62110375231975],[-3.426428050205578,47.62104003155973],[-3.426422920035587,47.620886788302876],[-3.426611134523657,47.62078609924574],[-3.426582670554803,47.62110375231975]]]},"properties":{}},{"type":"Feature","geometry":{"type":"Polygon","coordinates":[[[-3.43057642571664,47.62099180880548],[-3.430463247690468,47.62027557494323],[-3.430558569642143,47.62018000492049],[-3.430399342010065,47.62018879145202],[-3.430381467794839,47.62026202570773],[-3.430344100201421,47.62017377778289],[-3.430325142957687,47.62023804079845],[-3.430111756232638,47.620240784466674],[-3.430241470931836,47.62009816201414],[-3.430444837056849,47.62012306401159],[-3.430479502193148,47.61996762423275],[-3.430311611581548,47.61990464078748],[-3.430490878304612,47.6198405625564],[-3.430450261919102,47.61972540094725],[-3.430592970333222,47.61969043287267],[-3.430499005433481,47.61968658717124],[-3.430350346140285,47.6194509536864],[-3.430300257478317,47.6191466638355],[-3.430275338725169,47.61938284475884],[-3.430206829015209,47.61936856320595],[-3.430438349290928,47.619626717375766],[-3.430279659060628,47.61986124899699],[-3.430367662654879,47.62003701270263],[-3.430176482896315,47.62000240715895],[-3.430145065632229,47.62018476054791],[-3.430044328375623,47.62023547405904],[-3.430090358875566,47.62039549194859],[-3.430200842840046,47.62042551949721],[-3.430231986372239,47.6203515530932],[-3.430319181162815,47.62040995859116],[-3.430240649937657,47.62042332295261],[-3.430317824693343,47.620509374328456],[-3.430175113909882,47.62054434205213],[-3.430434533640493,47.62070161599733],[-3.430248492573857,47.62082025368106],[-3.430082765408181,47.62077521239548],[-3.430025083140511,47.62085064306494],[-3.430175375449897,47.62087847414646],[-3.430429928418611,47.62077411803477],[-3.430355455145572,47.620931754331295],[-3.430484897700211,47.62089751860633],[-3.43057642571664,47.62099180880548]],[[-3.43045376415198,47.62052896601725],[-3.430312409888656,47.62046451817226],[-3.430343553289025,47.620390551739966],[-3.43045376415198,47.62052896601725]],[[-3.430468389399222,47.620428818070465],[-3.430270710462734,47.62034038530561],[-3.430428855591216,47.62032262771921],[-3.430468389399222,47.620428818070465]]]},"properties":{}}]}