{"type":"FeatureCollection","features":[{"type":"Feature","geometry":{"type":"Polygon","coordinates":[[[-3.457010490722291,47.646108855350334],[-3.457055975087551,47.64604311842822],[-3.457190901405568,47.64605370787268],[-3.45704509535293,47.64595340978327],[-3.457252055465542,47.645896791764855],[-3.457166965533905,47.64585634887562],[-3.457345199163788,47.6457832594237],[-3.457692088219767,47.64599885524277],[-3.457857046612532,47.64592650030771],[-3.457335407011055,47.64570252165678],[-3.457199174521889,47.64579134712169],[-3.457008973063771,47.64576575682804],[-3.45705075455666,47.64588987850938],[-3.456781990783986,47.64587767000673],[-3.456624219110808,47.64567869183147],[-3.456492557472278,47.645695014344156],[-3.456414642191608,47.645934138205966],[-3.456110847046078,47.64574324587864],[-3.456135442560646,47.645615448289654],[-3.456231630617797,47.64563721506101],[-3.456195290327035,47.64555794744368],[-3.45605013255225,47.645683390194286],[-3.455939581751533,47.64565338749242],[-3.455975921727435,47.64573265518533],[-3.455834469882018,47.64566823907294],[-3.455840774664801,47.64583044994036],[-3.455775709356699,47.64573471060842],[-3.45568365014451,47.64585721257922],[-3.455750890944902,47.64597089370986],[-3.455925641924199,47.645979279391845],[-3.455980051365057,47.64587692428974],[-3.456082766682554,47.645952516429304],[-3.456187012311061,47.64582030815546],[-3.456261869014265,47.64599678510284],[-3.456416817922838,47.645952079947286],[-3.456398970785744,47.646025317205485],[-3.456455555109413,47.64594090362615],[-3.45653063326789,47.646008994801065],[-3.456530853664947,47.645900609205626],[-3.456711264139848,47.64584546246255],[-3.457010490722291,47.646108855350334]]]},"properties":{}},{"type":"Feature","geometry":{"type":"Polygon","coordinates":[[[-3.436869779161138,47.64576857434514],[-3.436903097400503,47.645712549238446],[-3.436987087146346,47.64574403583357],[-3.437069427623665,47.64554080911979],[-3.437240920352008,47.645522309589886],[-3.437152332577814,47.64556332454668],[-3.43717862325107,47.64567024419941],[-3.437454407807961,47.64551955293196],[-3.437521609345095,47.6456332445697],[-3.437624556840067,47.64560046736911],[-3.437563863246682,47.64554060207638],[-3.43780064692224,47.64550946562732],[-3.437838561314445,47.64538093884354],[-3.437863768535427,47.64547888730673],[-3.437948016620373,47.645401987629626],[-3.438157991490182,47.64548070213831],[-3.438079941076307,47.64527730041772],[-3.437939596789675,47.64522183367323],[-3.438099982647941,47.6452220080197],[-3.438180975635593,47.6451181950301],[-3.438351124489644,47.64519910842617],[-3.43835680587,47.6451355780345],[-3.438250605333853,47.64514144275853],[-3.438349212186967,47.64507278073689],[-3.438528296849673,47.64511707661125],[-3.438554275933634,47.644889868110134],[-3.438781864225562,47.64500373256312],[-3.438930059312942,47.64501360995345],[-3.438973395191056,47.644929937958544],[-3.439100464766571,47.644986136651596],[-3.439088530502292,47.64488745525108],[-3.43896254608312,47.64484022758026],[-3.439231556076731,47.64474409145056],[-3.438957377629241,47.644686986761066],[-3.43906466210615,47.64469009243114],[-3.439119102572846,47.644587745113846],[-3.439388685567297,47.64471735091982],[-3.439446380397523,47.64464191655681],[-3.439673139141195,47.64463842262256],[-3.4395192650226,47.644692076637995],[-3.439616529651649,47.64472282813027],[-3.439816993184156,47.64461241475993],[-3.439959253914613,47.64479420695664],[-3.439870669438595,47.64483522398987],[-3.440078728527391,47.64478760738703],[-3.440084407807118,47.64472407689776],[-3.44024913266789,47.64476013240675],[-3.440335546453677,47.64470117303312],[-3.440219327418873,47.64473468594657],[-3.44011012633044,47.64460525364557],[-3.439915342904721,47.6446521370358],[-3.440004181001783,47.644502734324014],[-3.43985139265994,47.64456535981031],[-3.439812907342792,47.644468144992324],[-3.439613529356896,47.6445875293972],[-3.439535219790567,47.64449251420078],[-3.439403300675302,47.644617203106684],[-3.4392144524509,47.644492169227625],[-3.438919150016162,47.644481386015165],[-3.438880153975361,47.6446009421698],[-3.439033772543718,47.64465567462965],[-3.43867426425809,47.6446664987263],[-3.438681030053842,47.64461193934309],[-3.438501689948731,47.64467602932501],[-3.438430718777189,47.644752196326046],[-3.438503345589514,47.64491074265849],[-3.438367083777843,47.64499954620116],[-3.438228909498738,47.64496202188229],[-3.438175551724029,47.645073339809215],[-3.438060673194175,47.64500743600492],[-3.438017335821958,47.64509110765794],[-3.437967747920996,47.64501256740856],[-3.437802765390061,47.64508489429731],[-3.437546200469106,47.64506293746326],[-3.437519132333117,47.64528117467034],[-3.437263910745408,47.645159802669944],[-3.437336534645684,47.64531834969397],[-3.437171810029832,47.64528229008939],[-3.436996804214254,47.64538226194812],[-3.437065609071472,47.64528815373591],[-3.436832340036051,47.6452378162735],[-3.436694990070684,47.64531764679548],[-3.436590134406726,47.64522409547381],[-3.436451699618052,47.64529495465241],[-3.436331400367521,47.64518419385701],[-3.436218431132032,47.64524461596457],[-3.436163423511117,47.645121219644885],[-3.436144464412736,47.64518548277629],[-3.435995184946832,47.6451666307898],[-3.436082426593806,47.64522503123581],[-3.435988416334605,47.6452211900017],[-3.435958350680071,47.64530412805358],[-3.435835621222868,47.64528381021342],[-3.435920694071228,47.64532426864696],[-3.43589605027815,47.645452061996096],[-3.436164807119372,47.64546431854115],[-3.436178344030961,47.64535520010879],[-3.436212223864699,47.64552491741646],[-3.436359596804825,47.64541744142302],[-3.436479073258091,47.64541084553621],[-3.436558463248575,47.64551483379267],[-3.436696898465908,47.645443974495684],[-3.436704490257255,47.64550677188853],[-3.436875983002726,47.64548827289391],[-3.436822621879421,47.64559959017248],[-3.436913379125384,47.64557651757388],[-3.43692205577252,47.645648286001574],[-3.436766006861314,47.64568399425688],[-3.436869779161138,47.64576857434514]],[[-3.43740347643258,47.645540426994046],[-3.437163698257057,47.645436263901644],[-3.437204868000344,47.64533465047618],[-3.437341957876877,47.64536320494807],[-3.43740347643258,47.645540426994046]],[[-3.437759736701547,47.64550269367402],[-3.437610455777601,47.64548384375428],[-3.437610714602622,47.64537545816798],[-3.437457920952978,47.64543808049607],[-3.437468201210581,47.64530204876322],[-3.437629672002686,47.645311194805046],[-3.437759736701547,47.64550269367402]],[[-3.438028752201832,47.64540656034666],[-3.437814438910956,47.645291961416575],[-3.437947190011867,47.645284630992556],[-3.438028752201832,47.64540656034666]],[[-3.43777461357357,47.645294160514354],[-3.437737216224551,47.64520591609704],[-3.437888665888256,47.64524270795004],[-3.43777461357357,47.645294160514354]],[[-3.43887179097549,47.644863301779324],[-3.438755827164586,47.64478842761211],[-3.438653966787828,47.64483017686428],[-3.438587848692927,47.644725456872365],[-3.438808927056528,47.64478549503204],[-3.438789142811771,47.644732401939045],[-3.438919722587869,47.64470712832741],[-3.43887179097549,47.644863301779324]]]},"properties":{}},{"type":"Feature","geometry":{"type":"Polygon","coordinates":[[[-3.447167852805795,47.643736529159696],[-3.447345006755246,47.64365448391416],[-3.447707765526338,47.643670546020914],[-3.447766533828244,47.643604078471576],[-3.447464955504553,47.64343110536094],[-3.447469539537192,47.64335860350216],[-3.447448422067293,47.643404926594556],[-3.447362257248633,47.64335550554711],[-3.447367449709547,47.64350874609985],[-3.447209720145894,47.643309754968804],[-3.447061528258545,47.64329988807084],[-3.447011928711131,47.643221351586995],[-3.446515101597138,47.64331204238682],[-3.446465021182198,47.64345027711747],[-3.446833815361595,47.64373693920077],[-3.446932408574775,47.643668269885964],[-3.446743305801713,47.64365163382365],[-3.446934820903509,47.6435778261173],[-3.446963782298506,47.64348591419732],[-3.446985746676955,47.64355694787951],[-3.447279959343076,47.64355873974357],[-3.447167852805795,47.643736529159696]]]},"properties":{}},{"type":"Feature","geometry":{"type":"Polygon","coordinates":[[[-3.434128505009239,47.64453815856451],[-3.434000425794403,47.6446293321718],[-3.433901479974748,47.64465002736356],[-3.433840791639277,47.644590160107384],[-3.433968121219551,47.644537978766614],[-3.433954028429059,47.64442135464611],[-3.433823447000653,47.64444662271206],[-3.433866790425403,47.644362952586555],[-3.433736475787408,47.644279834916404],[-3.433829400191357,47.64427470687587],[-3.433831834755741,47.6441842634075],[-3.433770880410505,47.64423278174889],[-3.433680390893325,47.64414746627605],[-3.433575275799249,47.644162297844],[-3.433593153636907,47.644089064003886],[-3.433360709619681,47.64415607632319],[-3.433342831440565,47.644229310125205],[-3.433208182235227,47.644110307485704],[-3.433072997561593,47.64420807598585],[-3.433127449028191,47.644105731434806],[-3.432993616307509,47.644104085290614],[-3.432983861307486,47.64402334541622],[-3.432856531992728,47.64407552569839],[-3.432845693341898,47.64398581471254],[-3.432710508319512,47.644083582799624],[-3.432818606528541,47.64420405095267],[-3.432664726771072,47.644257695953236],[-3.432688562727176,47.64401254645455],[-3.432612165010413,47.64404385444778],[-3.432552831715714,47.64388457194566],[-3.432429023029395,47.643855279410225],[-3.432519779208238,47.64383221020329],[-3.432419268929106,47.643774539478244],[-3.432465865389882,47.64371778315547],[-3.432111780765235,47.643773442583154],[-3.432199285692616,47.64372346030367],[-3.43180483383222,47.64355557353337],[-3.43184519917,47.64333660509795],[-3.431885836536992,47.64345176481759],[-3.432029691175663,47.64342576652638],[-3.432078185137792,47.64349533825223],[-3.432184652912206,47.64338109344675],[-3.432127762960385,47.64357388106288],[-3.43235614039299,47.64336260106534],[-3.432240733290591,47.6435134628578],[-3.43233311743419,47.64372510735801],[-3.432479409422134,47.64360866505256],[-3.432361020283881,47.64362422796092],[-3.432352350100055,47.643552459119014],[-3.432519502876441,47.64349808207695],[-3.432645478424268,47.64354531672758],[-3.432635186211098,47.643681348160214],[-3.432822932293774,47.64379742162532],[-3.43270562667314,47.64382195598117],[-3.432717548895427,47.643920638088034],[-3.432962183635341,47.643843923458064],[-3.433061610734054,47.643892622616754],[-3.433154802396321,47.64377910944559],[-3.433244206520763,47.64385545424609],[-3.433096831619922,47.64396292639755],[-3.433356908726215,47.643903420636306],[-3.433303541846778,47.64401473639953],[-3.433426267421058,47.64403505691267],[-3.43352406157828,47.64384904216705],[-3.433480718033567,47.643932712187805],[-3.433669817665387,47.64394936971212],[-3.433681741699197,47.64404805171404],[-3.434084057619735,47.64417034406183],[-3.43394345413103,47.64422325813516],[-3.434047219116327,47.64430784079442],[-3.434400221138072,47.64424320443385],[-3.434369069439838,47.64431717103613],[-3.434611005469311,47.64443928208474],[-3.434583106446977,47.64454016197632],[-3.434346059743745,47.64467967754527],[-3.434334134340275,47.64458099564357],[-3.434128505009239,47.64453815856451]],[[-3.432819143630748,47.64398727965122],[-3.432812640484343,47.64393345305577],[-3.432652258516586,47.64393327145164],[-3.43264657047274,47.64399680160556],[-3.432819143630748,47.64398727965122]]]},"properties":{}},{"type":"Feature","geometry":{"type":"Polygon","coordinates":[[[-3.430403650356577,47.64434630620822],[-3.430630681431563,47.644234444187745],[-3.430689744500135,47.64405959960391],[-3.43069624552055,47.64411342631395],[-3.43079811075453,47.6440716839836],[-3.430781039915768,47.64426227415359],[-3.430880738292187,47.64420258952053],[-3.43083685193967,47.644060516145146],[-3.431089074999821,47.644046603263654],[-3.431086096364124,47.643911304264805],[-3.430926798007999,47.64392009140776],[-3.430920296778582,47.64386626470513],[-3.431091786256656,47.64384777418405],[-3.43103787548466,47.64373334647828],[-3.431129715626702,47.64371924946646],[-3.431076888461378,47.643613792887535],[-3.431154370033902,47.64359145700757],[-3.431074721345421,47.64359585065346],[-3.431164394096287,47.64356381137897],[-3.431088268191369,47.6434867327049],[-3.431170083858551,47.64350028128292],[-3.431166021479681,47.64335601113034],[-3.431427181391826,47.643305480763225],[-3.431331548118745,47.64350943603671],[-3.4314344953183,47.6434766642537],[-3.431440997018919,47.64353049093863],[-3.43161085994895,47.64327728604904],[-3.431493554914455,47.64330181919465],[-3.431513602568583,47.64324652786968],[-3.431792370969539,47.64323114882153],[-3.431897214306292,47.64332470454547],[-3.432012351787038,47.64328222877529],[-3.431825692955228,47.64317512508873],[-3.431892336716706,47.64306307758976],[-3.431528503220154,47.64303799526109],[-3.431206389287774,47.64313704289288],[-3.431153018688804,47.643248357718235],[-3.43101485401749,47.64321082483445],[-3.430892669858198,47.643416244281845],[-3.430968795380031,47.64349332308617],[-3.430815999325632,47.64355593679012],[-3.430879661179624,47.6437511046745],[-3.430615785550161,47.644000462879504],[-3.430600881063063,47.64420899526728],[-3.430591129664189,47.644128255197565],[-3.430412864927815,47.64420130389888],[-3.43049197765831,47.64397116829332],[-3.430310189350126,47.644125689129226],[-3.430035749424994,47.6441769491304],[-3.430055524754456,47.64423004372055],[-3.430199382382916,47.64420404769332],[-3.43019910851019,47.6443124333288],[-3.430394982687969,47.64427453724809],[-3.430403650356577,47.64434630620822]],[[-3.4302988076312,47.644252749193825],[-3.430291223556571,47.644189951344025],[-3.430398506529188,47.64419306497195],[-3.4302988076312,47.644252749193825]],[[-3.43078835908233,47.64399094392458],[-3.430739866351436,47.64392137168135],[-3.430845254317738,47.64379815700246],[-3.430908105461615,47.64387596807387],[-3.43078835908233,47.64399094392458]]]},"properties":{}},{"type":"Feature","geometry":{"type":"Polygon","coordinates":[[[-3.423925640057443,47.64503756483708],[-3.424200662398482,47.64476954803798],[-3.424222372618781,47.64450645798005],[-3.424486506660888,47.644591242291824],[-3.424328573431289,47.64450060600433],[-3.424471352113436,47.64446564585759],[-3.424428850657879,47.64422415564953],[-3.424491692947109,47.64430197015489],[-3.4244765384696,47.64417637370243],[-3.424545078495307,47.64419065843369],[-3.424390393684105,47.644126935736395],[-3.424431075465092,47.643799584284],[-3.424578182079882,47.6438005087051],[-3.42460119926327,47.6438805177567],[-3.424754003538796,47.64381791219066],[-3.424805735900233,47.64391440044308],[-3.424869147769103,47.64377544347056],[-3.424906522835535,47.643863692070916],[-3.425012722293799,47.6438578394714],[-3.424894330425657,47.64387339481217],[-3.424878605768384,47.64396456967481],[-3.424793543460442,47.64392410317356],[-3.424942530943511,47.64405135512062],[-3.425094536987162,47.643871392301],[-3.42511185795921,47.64401493103415],[-3.424993465771437,47.64403048647409],[-3.425001043588891,47.64409328467284],[-3.42514490331072,47.64406729486686],[-3.425230534041399,47.64389098983285],[-3.424858607324468,47.64357734607217],[-3.424650539377162,47.64362493560261],[-3.424452784154788,47.64353649405047],[-3.42439182202234,47.643585007515085],[-3.424414327632985,47.643439274110435],[-3.424145869856028,47.643318604854684],[-3.423940762763123,47.6435014923412],[-3.423832399219941,47.643489401598174],[-3.423669279733856,47.64368803661118],[-3.423727790980399,47.643729966808934],[-3.423616975169606,47.643808319146586],[-3.423698502358326,47.64393025859527],[-3.423777069815467,47.64391689879512],[-3.423661350109963,47.64417613769698],[-3.423578453004509,47.64415361268207],[-3.423510708124793,47.644256684190715],[-3.423567850218249,47.644398028886805],[-3.423713876131415,47.64438998321283],[-3.423670516765597,47.644473649570244],[-3.423756948403149,47.644414702449964],[-3.423650173347708,47.64463732511537],[-3.423782924763703,47.64463001078121],[-3.423702986848987,47.64474278499542],[-3.423836820884026,47.644744441780524],[-3.423901827675879,47.64484019893885],[-3.423717852626107,47.64497676709363],[-3.423766337160671,47.64504634221267],[-3.423780981678175,47.64494619637269],[-3.423925640057443,47.64503756483708]],[[-3.424302023230346,47.64450206900731],[-3.424231318019273,47.644469841783014],[-3.424312336844742,47.644366038367544],[-3.424302023230346,47.64450206900731]],[[-3.423928219584989,47.644062094401164],[-3.423832334355401,47.643931915386204],[-3.423950726662944,47.643916361121995],[-3.423928219584989,47.644062094401164]],[[-3.424866982733825,47.6437575011229],[-3.424770810866227,47.643735708512736],[-3.424873762531108,47.643702942514224],[-3.424866982733825,47.6437575011229]]]},"properties":{}},{"type":"Feature","geometry":{"type":"MultiPolygon","coordinates":[[[[-3.429152870052171,47.643503511466534],[-3.429224658513182,47.6434359945659],[-3.429245260180303,47.643163932256435],[-3.429344958222384,47.64310424889971],[-3.429286443248394,47.64306232150131],[-3.429145837922189,47.64311522983186],[-3.429191078144501,47.643157889356225],[-3.429026365702737,47.64312181822823],[-3.428887926324772,47.643192668522765],[-3.42878958750352,47.643152936935216],[-3.428834297579372,47.642969854059324],[-3.42865603430786,47.64304290012431],[-3.428683414499182,47.642716279001824],[-3.428840543303147,47.642689552627935],[-3.42868721778603,47.642526420984815],[-3.428731121394725,47.64222598120024],[-3.428413894487747,47.64214413426371],[-3.428439082880919,47.64224208492434],[-3.428288731310189,47.64221425191554],[-3.428017270029103,47.64240080641259],[-3.427956590852998,47.642340936030344],[-3.427873416198827,47.642426799777596],[-3.427947369928742,47.64248593828619],[-3.427884772044199,47.6427422538921],[-3.427810818028445,47.642683115351744],[-3.427769632443249,47.64278472560678],[-3.427833871257902,47.64232060975431],[-3.428145434182569,47.642023474116286],[-3.428824319357879,47.64211247138479],[-3.428795580473491,47.642538507231365],[-3.429064321009318,47.642550780126626],[-3.429126084876837,47.6426196210668],[-3.429129058471004,47.642754920206485],[-3.428885782920527,47.64273221227994],[-3.42871185309067,47.64284114300301],[-3.428876564453506,47.64287721457964],[-3.428832131243585,47.64295191177765],[-3.428950243516565,47.64304473814349],[-3.42903775021017,47.64299475821282],[-3.42922223634309,47.643083924089986],[-3.429405107516084,47.6429383759987],[-3.429555461709282,47.64296620756043],[-3.429521862228456,47.64313061635236],[-3.429318940796681,47.64333145556281],[-3.429535669776343,47.64335562677344],[-3.429531061378207,47.64342812792688],[-3.429361739241176,47.643464558428605],[-3.429277206100279,47.643649837662664],[-3.429152870052171,47.643503511466534]]],[[[-3.429152269127171,47.64350407663436],[-3.429072391480342,47.64372434846507],[-3.429020651588462,47.64362786209232],[-3.429152269127171,47.64350407663436]]]]},"properties":{}},{"type":"Feature","geometry":{"type":"Polygon","coordinates":[[[-3.427562060755397,47.64350057678878],[-3.427601639637454,47.64316425297441],[-3.427516855855419,47.64301540274257],[-3.427649881750708,47.64289969830621],[-3.427545850389229,47.642923495611555],[-3.427551544391135,47.64285996567064],[-3.42748380882779,47.642963039552065],[-3.427449678930734,47.64290170519687],[-3.427271657460335,47.64330887738091],[-3.427223449845797,47.643130917964605],[-3.427299849416908,47.64309961347999],[-3.427223729756266,47.64302253226956],[-3.427142718633916,47.64312633777625],[-3.427140832939255,47.643000009768556],[-3.427030303958756,47.642969979675314],[-3.427197460333368,47.642915610230524],[-3.427134615731255,47.64283779712432],[-3.427232429625398,47.64265178752934],[-3.427068802934023,47.642624684789546],[-3.427113238339718,47.642549988249414],[-3.426980772955613,47.642448920648334],[-3.426678706519021,47.64249266525597],[-3.426640246694228,47.64239544599581],[-3.426726390768897,47.642444882347604],[-3.426854805010404,47.642401679863426],[-3.42672775448659,47.64234546777834],[-3.426558433871148,47.64238189423815],[-3.426528073840592,47.64257321571033],[-3.426405354255473,47.642552887936354],[-3.426470925860478,47.642431872327855],[-3.426398056588282,47.6423817040492],[-3.426374192462618,47.6426268524718],[-3.426205953433195,47.64267224958045],[-3.426202423291494,47.642753721794485],[-3.426074289917997,47.642688537842645],[-3.426081868816798,47.64275133601512],[-3.425919325077783,47.64273320283437],[-3.425816941457445,47.642549198340085],[-3.425644088585475,47.64266709567694],[-3.425703399904736,47.64282638178757],[-3.425475848808082,47.64271249173336],[-3.42533740577819,47.642783337836086],[-3.425386741351637,47.64252775522528],[-3.425509460490934,47.64254808406938],[-3.425578281951273,47.642453982483694],[-3.425452315235696,47.64240674018687],[-3.425449350982899,47.64227144092926],[-3.425365089830297,47.64234833171892],[-3.425244820234482,47.642237559340614],[-3.425374601408645,47.64209494391369],[-3.425431746124159,47.64223628785714],[-3.425510310653355,47.642222926879775],[-3.425437726102465,47.64206437225183],[-3.425564258548139,47.641894843069736],[-3.425451619024584,47.64140435484464],[-3.425035041845,47.64083127859996],[-3.424892557888995,47.640757853684576],[-3.425046949214875,47.640929961642435],[-3.424944003005897,47.64096272784077],[-3.424629809755749,47.64057365548547],[-3.424143568731414,47.64041983450419],[-3.423529273591943,47.63975831001405],[-3.422887580043134,47.639423402450895],[-3.422827703273833,47.63948088641525],[-3.420718123020603,47.63882947700659],[-3.419806953629239,47.63836490306442],[-3.419464888904105,47.638076692989735],[-3.419244452277207,47.63779984608995],[-3.418607945623822,47.636398996985946],[-3.417853467057699,47.63568195087022],[-3.417870282451367,47.63559974783811],[-3.417793888085842,47.635631046278576],[-3.417701575610085,47.635419389397185],[-3.417607284549413,47.635523919454016],[-3.417523921460135,47.63527564655529],[-3.417376838465059,47.63527471324871],[-3.417215701706914,47.63515715305943],[-3.417181888863008,47.634987429335084],[-3.416986039389878,47.63502530344781],[-3.417028320537524,47.63493266787346],[-3.416790791749074,47.634846404979875],[-3.416693859525097,47.63470724819411],[-3.416389968522884,47.63462463765333],[-3.416176954190969,47.63407645375219],[-3.416322428330423,47.63306602754927],[-3.41613596537651,47.6325163819327],[-3.416061736027049,47.63256562190397],[-3.416097531943909,47.632419158700394],[-3.416205871258962,47.632431256686395],[-3.416412695867201,47.63281722694518],[-3.416257798426191,47.63363852549585],[-3.416354425638277,47.63388606890803],[-3.416324510755027,47.634303132202454],[-3.416496452180974,47.63451040661967],[-3.416449846777602,47.63456715684384],[-3.416568220462815,47.63455160998451],[-3.416817638351903,47.634736557541274],[-3.417194380880042,47.63486934122533],[-3.417368789551389,47.63498617074639],[-3.417335457503624,47.63504219059328],[-3.417563258012595,47.635047710834314],[-3.417886315449401,47.63540018742259],[-3.417965952991667,47.63539580274831],[-3.417880610738455,47.63546371713792],[-3.417961030883261,47.635576689841045],[-3.418111656743936,47.635496150139616],[-3.41889425151947,47.63644644751849],[-3.419460072740595,47.63781506480532],[-3.419779619807859,47.63824900785308],[-3.420232203249175,47.63856725367819],[-3.420725988153364,47.6387838897345],[-3.42286348526024,47.63933442166341],[-3.42366662894177,47.63967849473846],[-3.424047466250987,47.63995552665995],[-3.424264403759148,47.64031383644592],[-3.424434801752869,47.64028638446553],[-3.424458899585517,47.640375364884974],[-3.424979266614766,47.64059051971984],[-3.42526611543631,47.64086369736181],[-3.425399939791617,47.640865352359846],[-3.425994736023275,47.64180789977746],[-3.425851682759629,47.64195124759223],[-3.426049152135497,47.642148072597244],[-3.426024486169628,47.64227586407454],[-3.426113077038272,47.642234857484596],[-3.426122821315849,47.64231559800743],[-3.426249070295893,47.64225445384763],[-3.426308664727584,47.64230535395207],[-3.426356630808438,47.642149185447906],[-3.42663539496265,47.64213381869483],[-3.426716124629476,47.642138399236096],[-3.426648388368398,47.642241472671884],[-3.42673778060814,47.64231782251164],[-3.42685644913985,47.64219387954956],[-3.427119493054393,47.64226968684889],[-3.427127073123685,47.64233248496724],[-3.427212414593566,47.642264564065385],[-3.42724870958769,47.642343840827124],[-3.427542914893809,47.64234568239063],[-3.427527195211933,47.64243685768211],[-3.427383341045766,47.64246285044323],[-3.42734837262363,47.642726673215485],[-3.427461625996151,47.642557873883085],[-3.427657495677664,47.642519982356816],[-3.427620117003056,47.64243173457482],[-3.427814903123853,47.64238487162746],[-3.427715729868912,47.64267029630501],[-3.427788043249633,47.64293723517509],[-3.427632800042818,47.64309028813228],[-3.427562060755397,47.64350057678878]],[[-3.424367063436301,47.64038945667787],[-3.424346212829231,47.64032738982446],[-3.424255459077999,47.64035045272458],[-3.424367063436301,47.64038945667787]],[[-3.425612925670781,47.642741060004944],[-3.425648702198788,47.642594594648195],[-3.425539257503793,47.6425735343103],[-3.425480462653892,47.64263999071297],[-3.425559027765239,47.64262662970565],[-3.425612925670781,47.642741060004944]],[[-3.425701899347954,47.64170663972477],[-3.425617123180649,47.64155778800168],[-3.425574851693314,47.64165042636574],[-3.425701899347954,47.64170663972477]],[[-3.426143392665345,47.64248605020845],[-3.426208964782281,47.64236503474274],[-3.426074053949136,47.64235440950344],[-3.426035030685155,47.64247396150182],[-3.426143392665345,47.64248605020845]],[[-3.427357559586136,47.6430241850235],[-3.427405243703103,47.6429764018513],[-3.427246227395885,47.64287679827692],[-3.427244864630513,47.642976212824784],[-3.427349979147356,47.642961386942694],[-3.427357559586136,47.6430241850235]],[[-3.42735567338649,47.642897857012564],[-3.42738683397722,47.642823892225785],[-3.427307186124273,47.64282828330521],[-3.42735567338649,47.642897857012564]]]},"properties":{}},{"type":"Feature","geometry":{"type":"Polygon","coordinates":[[[-3.416929491960583,47.629730481536285],[-3.416967441044841,47.62977039605525],[-3.416613131401899,47.62993439532649],[-3.416734436234197,47.63005414860801],[-3.416659130000145,47.63009441770884],[-3.416721944326525,47.630172236962416],[-3.416582441353475,47.63023410183907],[-3.416671799084731,47.63031045985438],[-3.416541243999415,47.630335708790376],[-3.416579676740043,47.63043293198132],[-3.416371048887985,47.63069727983141],[-3.415767980163228,47.63123620194928],[-3.415741133160784,47.631346049345424],[-3.41566936982759,47.63130484540421],[-3.41556181009147,47.631410104555826],[-3.415491127500722,47.63137787182407],[-3.416280308065074,47.63072033665154],[-3.416216412940221,47.63063354586754],[-3.416327212261527,47.630555200014165],[-3.416226744481275,47.630497514964354],[-3.416442938057048,47.63029596654714],[-3.416338926264958,47.63031975402927],[-3.416319169733603,47.630266656735714],[-3.416498488052532,47.630202600324864],[-3.416218702505149,47.630208971670406],[-3.416117154723143,47.630142315198825],[-3.416192461433652,47.63010204644839],[-3.416149706543711,47.629968937839166],[-3.416288907280114,47.63001545987503],[-3.416268070118897,47.629953391247035],[-3.416425167566527,47.62992668139323],[-3.416375021786898,47.6300649041753],[-3.41649939291085,47.62987744112391],[-3.416608808006101,47.62989851006787],[-3.416818813404425,47.629534746571835],[-3.417015723759021,47.62950584394484],[-3.416980533594026,47.629435534791476],[-3.417140091330188,47.629318380157216],[-3.417104901124965,47.62924807103453],[-3.417027434495175,47.62927039776345],[-3.417091930129943,47.629140415272715],[-3.416972487703153,47.62914699139133],[-3.417010440623512,47.62901847028053],[-3.417120154512122,47.62893115229424],[-3.417258272449211,47.62896870188554],[-3.417236353635819,47.6288976620834],[-3.417427556862015,47.62893228865064],[-3.417604707378636,47.62885028787357],[-3.417683553371633,47.628728545593056],[-3.41757414025038,47.62870747764307],[-3.41770823304608,47.62860075498111],[-3.417716398381205,47.628446781181005],[-3.417973472503969,47.62825200874921],[-3.417899549545338,47.62819286349231],[-3.418006017142351,47.62807863070329],[-3.417993343187465,47.62786258845381],[-3.417809710482816,47.62789076198537],[-3.417919420746112,47.627803443197614],[-3.417680841257301,47.6277082104834],[-3.417764009371947,47.627622353338616],[-3.417517564762284,47.62757270761996],[-3.417746713477883,47.62747881229852],[-3.417827121309411,47.62759178555972],[-3.417984211026602,47.627565073576676],[-3.418147190423388,47.62780896232061],[-3.418041393386768,47.628483070407675],[-3.417544537290703,47.629016155908005],[-3.417379876359552,47.628980068097945],[-3.417202124694697,47.629278841430065],[-3.417372790933264,47.62914301314337],[-3.417297967431553,47.62940902687376],[-3.417120814589348,47.629491027162025],[-3.417179004893362,47.62964134737469],[-3.416929491960583,47.629730481536285]],[[-3.416913047375029,47.62971318524065],[-3.41692360359212,47.62962831639384],[-3.416845055451734,47.629641671684425],[-3.416913047375029,47.62971318524065]],[[-3.416426901195782,47.63049552729105],[-3.416560221424228,47.630271448347045],[-3.416499568888551,47.630211571639215],[-3.416426901195782,47.63049552729105]],[[-3.41719023442733,47.6291801569935],[-3.417272624724128,47.62897694249209],[-3.417091149627848,47.629023057503225],[-3.41719023442733,47.6291801569935]]]},"properties":{}},{"type":"Feature","geometry":{"type":"Polygon","coordinates":[[[-3.417175221159653,47.62661622714029],[-3.417311471295032,47.626527447469044],[-3.417448502225441,47.62655602555823],[-3.417400042720142,47.626486447151755],[-3.417502965641248,47.62645368735538],[-3.417554668067498,47.62655017968503],[-3.417627806724217,47.62649196729124],[-3.417694276013926,47.62604579575165],[-3.417537490110905,47.62596412073803],[-3.417380223404239,47.62565670090159],[-3.417047379727522,47.62566599711755],[-3.416963132684465,47.62574288250792],[-3.417009429279639,47.62579451846235],[-3.417242894734994,47.625736509364714],[-3.417328703311971,47.625894339707784],[-3.417389651660176,47.62584582948446],[-3.4175044634288,47.62591175426344],[-3.417442134519831,47.62605967984789],[-3.41730294309382,47.62601315909145],[-3.417409589280879,47.626233057917],[-3.417326722678383,47.6262105282575],[-3.417272259172787,47.626312866390975],[-3.417197558982639,47.62613636268791],[-3.417078123290586,47.6261429389247],[-3.417055125031478,47.626062927657],[-3.416864712283296,47.626145658381056],[-3.416870896338793,47.62630787297136],[-3.41699603721672,47.62623776697466],[-3.416898217730413,47.626423769578246],[-3.417032005624724,47.626425434173306],[-3.416975379651688,47.626509829504066],[-3.417144656459696,47.626473416633],[-3.417175221159653,47.62661622714029]],[[-3.417306066809285,47.6264825908492],[-3.417248660398152,47.62644962838627],[-3.417374882017989,47.626388493313875],[-3.417306066809285,47.6264825908492]],[[-3.417462072601124,47.626446908228836],[-3.417416855915382,47.626404243794624],[-3.417507588910511,47.62638118604033],[-3.417462072601124,47.626446908228836]],[[-3.417219957219172,47.626433147144006],[-3.417172578994716,47.626372539964194],[-3.417268716477814,47.62639433902415],[-3.417219957219172,47.626433147144006]]]},"properties":{}},{"type":"Feature","geometry":{"type":"MultiPolygon","coordinates":[[[[-3.438818682281137,47.62379588304776],[-3.438829938312057,47.62374209316408],[-3.438750576276671,47.623638105279554],[-3.438675039145751,47.62378677551064],[-3.438581323203056,47.62367454951447],[-3.438646844016611,47.62355352589314],[-3.438485438861672,47.623544381154076],[-3.438477848098634,47.623481583163404],[-3.438680659617965,47.62328072598664],[-3.438804424017158,47.62331001220928],[-3.43883230396714,47.623209130202234],[-3.438991539219028,47.623200332187174],[-3.438981778967279,47.62311959194101],[-3.439057887225156,47.6231966662835],[-3.439218206914582,47.62319683909699],[-3.439115047939551,47.623338004912945],[-3.4394568046536,47.623292028038385],[-3.439495274055915,47.62338924403841],[-3.43937450758234,47.623495258773865],[-3.439548097837358,47.6234946979134],[-3.439519134520166,47.62358660894497],[-3.439229370276376,47.62362068205717],[-3.439314921691961,47.62344436483959],[-3.439113707776094,47.62343742060231],[-3.439103947296224,47.623356680376176],[-3.438794979531944,47.62356340356436],[-3.438938265164559,47.62375417012104],[-3.438818682281137,47.62379588304776]],[[-3.438781709836678,47.62356413671811],[-3.438839382662948,47.62348870182943],[-3.438757595719566,47.62347515848156],[-3.438989942911846,47.62340813470932],[-3.438857246355496,47.62341546640102],[-3.438912749987105,47.62332208919257],[-3.438545280894292,47.62348688869314],[-3.438781709836678,47.62356413671811]],[[-3.439065222865874,47.62336785107524],[-3.439052209014009,47.62326019743024],[-3.438973675782701,47.62327356764421],[-3.438955812297362,47.623346803095764],[-3.439065222865874,47.62336785107524]]],[[[-3.438809755826156,47.62383854036548],[-3.438862728392114,47.623902840464645],[-3.438805883315943,47.62409563327361],[-3.438912041922159,47.624089767981054],[-3.438927224660603,47.62421536386417],[-3.439036636997998,47.62423641186101],[-3.438909360796387,47.624288599273164],[-3.438948914410882,47.624394786536826],[-3.439300694268887,47.62432116357172],[-3.439314793433841,47.62443778825987],[-3.439137946538189,47.62441143537968],[-3.438964097322829,47.624520382395445],[-3.43909545638412,47.6246124662156],[-3.438948146389026,47.62471994681693],[-3.439167228799203,47.62465365590567],[-3.439276642129548,47.62467470367294],[-3.439220053183791,47.62475910986047],[-3.43932729762595,47.624762215321404],[-3.439327552864657,47.62465382856895],[-3.439439135417035,47.62469281844053],[-3.439430458791921,47.62462104942135],[-3.439675825525517,47.624661677855414],[-3.439439964986637,47.62481017631773],[-3.439122569503238,47.62483674446836],[-3.439009390601989,47.62500555664898],[-3.438920009802453,47.62492921551552],[-3.438991526586063,47.625078792040775],[-3.43887318044203,47.62509436169667],[-3.438921666670103,47.62516393124167],[-3.438804404799756,47.62518847195691],[-3.438800895042462,47.62526994528731],[-3.438778120957513,47.62508155153639],[-3.438630809029025,47.625189031711564],[-3.438689568286218,47.625122568092635],[-3.438458554684716,47.62509017561598],[-3.438471567785504,47.625197829225826],[-3.438281191321149,47.625280594896786],[-3.438114359163304,47.62522659397603],[-3.438178798564321,47.62509659957624],[-3.438286043623914,47.62509970599269],[-3.438163359732639,47.62507939038499],[-3.438218039420245,47.624868655710934],[-3.438063909888178,47.62458817697819],[-3.438135112433859,47.62440362264148],[-3.438008092868488,47.62434742230008],[-3.437940090826165,47.62411637176711],[-3.438055750768504,47.62429963432021],[-3.438216073767118,47.624299808509164],[-3.438227432387233,47.62417274636252],[-3.438177863608508,47.6240942053522],[-3.438019709885286,47.62411197339697],[-3.438140480444539,47.62400596009596],[-3.437935753565211,47.62408048719163],[-3.437901623732014,47.62401915529121],[-3.438000192017673,47.623950492813734],[-3.438266672356387,47.623944802372584],[-3.438185711659932,47.6240486165589],[-3.438289701494337,47.62402480954809],[-3.43821550438987,47.62407406381014],[-3.438307308814092,47.624059961013316],[-3.438319236978012,47.62415864355701],[-3.438535892191517,47.624182798312525],[-3.438611487941083,47.6244766464431],[-3.438833823187221,47.62443726955722],[-3.438731943034358,47.624036501076226],[-3.438435412409686,47.62412513217676],[-3.438552101315393,47.62387484709804],[-3.438608176990619,47.62400721478773],[-3.438770668019491,47.6240253304915],[-3.438809755826156,47.62383854036548]],[[-3.438573647614688,47.62504769297964],[-3.43858175222241,47.62489371744465],[-3.438392718560763,47.62487706770576],[-3.438573647614688,47.62504769297964]],[[-3.43878214343166,47.62478330471674],[-3.438793757129289,47.62454785578943],[-3.438599045733838,47.624594737471845],[-3.43878214343166,47.62478330471674]],[[-3.4387729549461,47.624928309142135],[-3.438869354815265,47.62484170369794],[-3.438663797881641,47.62479887416284],[-3.438662456841128,47.62489828977234],[-3.4387729549461,47.624928309142135]]]]},"properties":{}},{"type":"Feature","geometry":{"type":"Polygon","coordinates":[[[-3.438558494832536,47.62724307290543],[-3.438643797631545,47.62717514312425],[-3.438531125994544,47.62712718141833],[-3.438776503563357,47.627167811689226],[-3.438917313419286,47.62700650471259],[-3.43884770708626,47.62698325716315],[-3.439149102428295,47.626713736356585],[-3.439072160232992,47.6265193044435],[-3.438885545852947,47.62641221110669],[-3.438943477635636,47.62622838961345],[-3.439254374007475,47.626147995236295],[-3.438937482552163,47.625957789512576],[-3.439040391232673,47.625925010730626],[-3.438955346936389,47.62588455416216],[-3.439020869614559,47.62576353046857],[-3.439195551809872,47.62577194125885],[-3.439260563047291,47.625867690810885],[-3.439307391887676,47.625702544540154],[-3.439556272139561,47.625661699877035],[-3.439857978612483,47.62572630829653],[-3.440077064022986,47.625660015713024],[-3.440375516842923,47.62569770944602],[-3.440425090344061,47.625776249458845],[-3.440585670474171,47.6256680336968],[-3.440388787046667,47.625696976112],[-3.440511726043104,47.62560890267395],[-3.440701847767918,47.62563452008824],[-3.440750084514955,47.62581247555177],[-3.440865177178517,47.62576999067323],[-3.440839973757056,47.62567204185817],[-3.441224809147535,47.62565077302885],[-3.440802585087395,47.62558379752564],[-3.440743247872156,47.625424517662005],[-3.441036275527634,47.62541735415291],[-3.440953148282365,47.625503227961644],[-3.441219887457329,47.62538914407218],[-3.441606890572219,47.62538581619591],[-3.442098383604472,47.625141903195875],[-3.4422361722461,47.62484529199874],[-3.442162476609277,47.62467777523851],[-3.442085027095784,47.624700118636646],[-3.442180585585971,47.624496152579255],[-3.442010996492726,47.624198470331656],[-3.442251187333237,47.62408585104681],[-3.441910427910106,47.62369828887015],[-3.441960751475779,47.62345166785494],[-3.441819125409677,47.623495620862904],[-3.441783906540814,47.62342531896766],[-3.441975355936501,47.62335151861856],[-3.442012159558253,47.62321401789691],[-3.442179824939871,47.62338537124973],[-3.442325790565473,47.6233773022281],[-3.442228226274191,47.62301242101161],[-3.442266363291598,47.62277550443216],[-3.44234597999434,47.62277110310989],[-3.442087263994374,47.622288695139076],[-3.442181072132482,47.62284343701258],[-3.441959830959944,47.62289179141451],[-3.441851004961289,47.623096490962155],[-3.441939301914803,47.62316385881358],[-3.441819875926842,47.62317046035947],[-3.441790916696901,47.62326237196966],[-3.441661726152632,47.62318823334418],[-3.44183514963717,47.623738574331206],[-3.441710297640534,47.62370032021591],[-3.441720062125235,47.62378106020992],[-3.441625004296215,47.62376825235798],[-3.441623085013779,47.623641923321735],[-3.441491473141295,47.623658229117055],[-3.441455752772415,47.62380470075582],[-3.441568169339337,47.62396104652458],[-3.4417509413407,47.623815477672906],[-3.44180944500657,47.623857399245686],[-3.441723066589623,47.62391636034513],[-3.441885558398858,47.62393447171628],[-3.441968767201973,47.62429111545623],[-3.441902168026472,47.62440316978948],[-3.441839323784784,47.62432536384893],[-3.44173533494802,47.62434917401639],[-3.441834733739801,47.62439786620034],[-3.441762709317944,47.62446506491833],[-3.441838573369842,47.62465052415944],[-3.441976697611881,47.62468804460411],[-3.441881388053201,47.6247836237238],[-3.441922032947244,47.6248987810571],[-3.441814537890047,47.62500406472321],[-3.44167749790562,47.62497551519799],[-3.441512080718871,47.62526462153929],[-3.441242339454714,47.62524340605759],[-3.440737823808574,47.625379662102844],[-3.440727555719707,47.62551569552613],[-3.440329197731657,47.6256460827528],[-3.439483413463065,47.62561153932488],[-3.439184706222234,47.625682230011556],[-3.439012449260697,47.625583374757916],[-3.438783089746715,47.62578569858057],[-3.438762799789352,47.62594937833715],[-3.438561319702828,47.62605081983656],[-3.438541856583446,47.62633185732394],[-3.438461149807692,47.62632728491629],[-3.438499619584129,47.62642450109245],[-3.438402131814466,47.626502135032496],[-3.438477159601883,47.62657023849116],[-3.438334437960564,47.626605216075845],[-3.438349620055451,47.62673081187146],[-3.438100164979837,47.626545909528545],[-3.4380877211591,47.62666400037704],[-3.43799725452499,47.626578687471614],[-3.437754048925166,47.62655599781997],[-3.437898629618468,47.62620483210629],[-3.438089836595711,47.626239424898706],[-3.438122056976634,47.62617442774498],[-3.438048372415596,47.62600690850373],[-3.43788479125526,47.6259798206779],[-3.438000144499517,47.62582895194237],[-3.437970866889491,47.62558673127028],[-3.437761228970989,47.625399628907296],[-3.438051261641228,47.62525717275257],[-3.437842709054138,47.6250790416424],[-3.437725446874261,47.62510358127549],[-3.437752245497629,47.62499372847761],[-3.437626309211134,47.62494649887979],[-3.437650939395644,47.62481870380946],[-3.437541526411168,47.624797654520854],[-3.437500891043883,47.62468249565739],[-3.437674743773386,47.62457355082862],[-3.43776086930652,47.624622979499904],[-3.437785757387487,47.624386797615976],[-3.437586967413163,47.62428940627032],[-3.437343513152759,47.62437510250735],[-3.4371845337131,47.62427551150141],[-3.437199147359622,47.62417536290485],[-3.436795370118645,47.624260882419506],[-3.436492852551915,47.624078908105375],[-3.436415140385662,47.62420963452767],[-3.436367742343139,47.62414903506629],[-3.4361952339505,47.62415856235956],[-3.436475246420692,47.62404375636699],[-3.436657511281182,47.6241149690628],[-3.436441118288962,47.62398242403865],[-3.436687563915532,47.624032029921686],[-3.436588170500026,47.62398333334833],[-3.436743071983359,47.62393865377394],[-3.436789386144946,47.62399028193456],[-3.437053134024358,47.623740907207406],[-3.437031191016135,47.623669870930705],[-3.436819698830667,47.62379895595961],[-3.436805084575329,47.623899104528086],[-3.436386954907488,47.623976384415435],[-3.436278889606075,47.623855918303406],[-3.436069824711744,47.623894557493564],[-3.436055732779447,47.62377793238123],[-3.435950658454482,47.62379276624237],[-3.436102307919481,47.62372117402136],[-3.43601618537698,47.623671744104186],[-3.435837996376073,47.62374480185518],[-3.436006691514733,47.62348261681863],[-3.436236874162121,47.623397656193426],[-3.436198410687572,47.6233004391207],[-3.436308904099518,47.623330460846226],[-3.436416406644668,47.62322518215677],[-3.436356823875911,47.62317428670635],[-3.436246069272878,47.623252651853505],[-3.436141257735491,47.62315909906117],[-3.435999627654547,47.623203045019046],[-3.435966584571239,47.623150683691804],[-3.436357607659129,47.62284912618509],[-3.436332413887119,47.622751176250446],[-3.436169665923509,47.62284144399519],[-3.436060817825581,47.62304613815254],[-3.435892648743545,47.623091549668295],[-3.435747241854298,47.623325355475394],[-3.435982844082814,47.62328525118415],[-3.43602239113264,47.62339143949355],[-3.435771088433083,47.62352272115391],[-3.435842856817958,47.623563912909816],[-3.435710159442277,47.62357124102544],[-3.43568821829086,47.62350020449024],[-3.43545343568008,47.62365766615766],[-3.435425549110604,47.62375854733481],[-3.435711802154691,47.623805956960815],[-3.435559889040972,47.623985935459054],[-3.435597005115255,47.62418256831864],[-3.435463222266776,47.62418092498617],[-3.435460791378662,47.62427136942437],[-3.435162906471779,47.62445940780094],[-3.435288575991509,47.624615026818354],[-3.43589735226015,47.624346602620136],[-3.436037639542981,47.62440207241681],[-3.43596317776812,47.62455971199495],[-3.436099129612521,47.62457929707199],[-3.436178749513749,47.62457489995785],[-3.436180095171601,47.624475484360374],[-3.436719826661282,47.624409551338445],[-3.436834659209187,47.6244754571635],[-3.43699632686711,47.624376217416625],[-3.437327815502033,47.624466279963855],[-3.437402061616247,47.624859544430464],[-3.437272919877572,47.625227919082434],[-3.43738966418758,47.625420153334275],[-3.437695703883707,47.62552065191692],[-3.437641280133399,47.62562299958103],[-3.437411349259423,47.625599576181244],[-3.437449816599567,47.62569679273957],[-3.437629919809495,47.6257500615759],[-3.437590934564906,47.62586961845937],[-3.437748576738432,47.62606862436957],[-3.437434166654679,47.62623048799103],[-3.437470206909759,47.62641814889038],[-3.437324797868656,47.62665195626133],[-3.437218633992587,47.62665782010351],[-3.437290407709521,47.626699010903494],[-3.437264691536769,47.62681783463658],[-3.437196170414856,47.62680355723836],[-3.437519566508768,47.62704759440921],[-3.437725131183732,47.62709042590846],[-3.437693994102937,47.62716439405405],[-3.437781466576037,47.62711440716435],[-3.437995706815112,47.6272290072339],[-3.438558494832536,47.62724307290543]],[[-3.437679847808183,47.626605251677596],[-3.437594803459312,47.6265647941327],[-3.437686612331107,47.6265506918418],[-3.437679847808183,47.626605251677596]],[[-3.437643399079552,47.6251984238833],[-3.437542918350156,47.62514075700984],[-3.437681299424432,47.62506989579926],[-3.437643399079552,47.6251984238833]],[[-3.436128099356642,47.624487386935506],[-3.436065263431761,47.62440957789179],[-3.436332007587434,47.62429550510078],[-3.436357202087539,47.62439345495776],[-3.436128099356642,47.624487386935506]],[[-3.435896268282977,47.62433763145844],[-3.435838852701091,47.62430467809667],[-3.435938508149136,47.624244988531885],[-3.435896268282977,47.62433763145844]],[[-3.436187645794251,47.62409576423989],[-3.436066049009035,47.62408441757896],[-3.436096102545118,47.624001478588724],[-3.436187645794251,47.62409576423989]]]},"properties":{}},{"type":"Feature","geometry":{"type":"Polygon","coordinates":[[[-3.452381011367631,47.62268553388206],[-3.452278803926281,47.62239316377419],[-3.45243586109246,47.62236640538913],[-3.452408464629019,47.62225051686472],[-3.452492426605716,47.622281992696],[-3.452461769912844,47.62213919112631],[-3.452366712431129,47.62212639200598],[-3.452454391483692,47.62196800707036],[-3.452321700358051,47.62197535406471],[-3.452507696389657,47.62185668129484],[-3.452621456196122,47.62191360066556],[-3.452585767532093,47.62206007583805],[-3.452772850036216,47.621950373668724],[-3.45272000166025,47.621844925692685],[-3.45263689877271,47.621930807973435],[-3.452625172867445,47.62172373983739],[-3.452415270110658,47.6216450503611],[-3.452234707962452,47.6218085781051],[-3.452351269885052,47.62210918466412],[-3.452209885007786,47.62204476337684],[-3.452266850352562,47.62229448256813],[-3.452170935121948,47.62216432535241],[-3.452116542545669,47.62226667993612],[-3.452012164080233,47.62195636748813],[-3.451977560349865,47.6221118134938],[-3.451868377030564,47.62198239066945],[-3.451662360316348,47.62215635780153],[-3.45149443783598,47.62209340488061],[-3.451450909508793,47.62228546942206],[-3.451475044244606,47.62237444509118],[-3.45154837060097,47.622207824423896],[-3.451559236259337,47.62229753468231],[-3.451634505161654,47.6222572429244],[-3.451728246055556,47.62236945852717],[-3.451713033725956,47.62224386419059],[-3.451865744266348,47.62218122247161],[-3.452058660422345,47.62245050833482],[-3.452164814299561,47.622444630991914],[-3.452256154277944,47.622647291019476],[-3.452381011367631,47.62268553388206]]]},"properties":{}},{"type":"Feature","geometry":{"type":"Polygon","coordinates":[[[-3.444068897816021,47.62409372776085],[-3.44416311686697,47.62398917573574],[-3.444006542250844,47.62379914935954],[-3.444184720253129,47.62372607914892],[-3.444120788136622,47.623639303320935],[-3.444241300253923,47.62364167051137],[-3.44415867177927,47.623510773032464],[-3.444294623958314,47.62353034858063],[-3.444317416849591,47.623718741405725],[-3.444379423574339,47.623679188134105],[-3.444442270757481,47.62375699273373],[-3.444331526815286,47.62383536552418],[-3.444412230326249,47.62383993388148],[-3.44441090001516,47.62393934960575],[-3.444567965673355,47.62391260182223],[-3.444646038619601,47.62312257786869],[-3.444817944870972,47.62288729328507],[-3.444734230719943,47.62274742507642],[-3.444837971057889,47.62283199909118],[-3.444853899409898,47.62263243367223],[-3.444915904475398,47.622592880093706],[-3.44497658022343,47.622652742277886],[-3.445020973946841,47.62257803815815],[-3.444993593471302,47.622462147907555],[-3.44490722082876,47.622521111404076],[-3.44480022468123,47.62240962417379],[-3.44483919125349,47.62229006467189],[-3.445048487127402,47.62214302284869],[-3.445012290161365,47.62250626947581],[-3.445118201453681,47.62260878542225],[-3.445061512798735,47.622250675887045],[-3.44513328664152,47.62229186196091],[-3.445173337873904,47.62218127342618],[-3.445332325979478,47.62228085366494],[-3.445097709256546,47.621887429197024],[-3.445030876001208,47.62210787236521],[-3.444968029901634,47.62203006801637],[-3.444745220753292,47.62228623043771],[-3.444640151779508,47.62230107212741],[-3.444595024155213,47.62270093676687],[-3.44449212510061,47.62273372049695],[-3.444576083169327,47.62276520201121],[-3.44448970957532,47.622824165189776],[-3.444595375960211,47.62303506845335],[-3.444496924304023,47.62354625497761],[-3.444395108949609,47.623588009693314],[-3.444311639920643,47.6233397543956],[-3.444152405130021,47.62334855966316],[-3.444108009550392,47.62342326342318],[-3.443969887082896,47.62338574547455],[-3.443948180867192,47.623206323641575],[-3.443816570778868,47.623222632060546],[-3.443737792519049,47.62334439231922],[-3.443871819530657,47.62323763933347],[-3.443842371666603,47.623546325115115],[-3.443689894183249,47.62350056947305],[-3.443694727997007,47.62331968017913],[-3.443558776574455,47.62330010393055],[-3.443519214601508,47.623193918168425],[-3.443576041695543,47.62300112297649],[-3.443449858097201,47.62306228646577],[-3.44339712437552,47.623399352815376],[-3.443568297159703,47.623489230619136],[-3.443523407217784,47.623780707790125],[-3.443837885403166,47.62406134590658],[-3.444068897816021,47.62409372776085]],[[-3.443883367203572,47.623995613362915],[-3.443839462858517,47.62385354338834],[-3.443744404391969,47.62384073726177],[-3.443800146070034,47.62363897093285],[-3.44395755896932,47.62394635549845],[-3.444063716712428,47.623940485523086],[-3.443883367203572,47.623995613362915]],[[-3.443929340674887,47.6237131071758],[-3.443852139347794,47.623627064937224],[-3.443965054195527,47.62356663477373],[-3.443929340674887,47.6237131071758]],[[-3.443623053094876,47.623721011652925],[-3.44355912189744,47.62363423551725],[-3.443666364332038,47.623637336995905],[-3.443623053094876,47.623721011652925]],[[-3.444184965624642,47.623617692328295],[-3.444087736817801,47.62358694430326],[-3.444119948294939,47.62352194540651],[-3.444184965624642,47.623617692328295]]]},"properties":{}},{"type":"Feature","geometry":{"type":"Polygon","coordinates":[[[-3.459501325664676,47.62158663605371],[-3.459421926571217,47.621482662103425],[-3.459747995413218,47.6215278063709],[-3.459643146082163,47.62143427459008],[-3.459822169109886,47.621478538367576],[-3.460016188962886,47.62120587631496],[-3.459844995812754,47.621116022513036],[-3.459934613531526,47.62108396078808],[-3.459908289391915,47.62097704490083],[-3.460049893879977,47.620933069902605],[-3.460004647836096,47.62089042184013],[-3.460110797735893,47.620884537270506],[-3.460033574421256,47.62079850560441],[-3.459960489814403,47.62085674471321],[-3.459953087517826,47.62068556101908],[-3.459788209958272,47.6207579198575],[-3.459916118428232,47.62093145457613],[-3.459758855493503,47.62106661003897],[-3.459687072015939,47.62102543292776],[-3.459693599467946,47.621079258661524],[-3.459521105165014,47.621088820420994],[-3.45961377268536,47.621192058804986],[-3.45948543598309,47.621235297763285],[-3.45950740786785,47.62130632990742],[-3.459321643943788,47.62131662687897],[-3.45934687921745,47.62141457192267],[-3.459215493097865,47.62132251073004],[-3.459074974701182,47.621375455667696],[-3.458931408081205,47.62129310057267],[-3.459026250423943,47.62141428133411],[-3.459501325664676,47.62158663605371]],[[-3.459301418656717,47.62148031057381],[-3.459242903861521,47.62143839771252],[-3.459321429314257,47.62142501385754],[-3.459301418656717,47.62148031057381]],[[-3.459788015797326,47.621417212782994],[-3.45970861639749,47.621313239018576],[-3.459833475705136,47.62135147394034],[-3.459788015797326,47.621417212782994]],[[-3.459729714490109,47.62126691318209],[-3.459627041504469,47.62119132328358],[-3.459705566497479,47.62117793916861],[-3.459729714490109,47.62126691318209]]]},"properties":{}},{"type":"Feature","geometry":{"type":"Polygon","coordinates":[[[-3.417385746152214,47.62525903958001],[-3.417394511452742,47.624888292168976],[-3.417590323445139,47.62485041717336],[-3.417545108009181,47.62480775275374],[-3.417682433837335,47.62472794389717],[-3.417861433092421,47.62477227191181],[-3.417891031866264,47.624463592891935],[-3.418038085082789,47.62446452555637],[-3.417987948610478,47.62460274941976],[-3.418059704723462,47.624643952078905],[-3.418129597229047,47.62455882533594],[-3.418128217953169,47.62465824071859],[-3.418211678707565,47.62446399640744],[-3.4181366797368,47.624395879859954],[-3.4182902188875,47.62445064016229],[-3.418431083475102,47.624289357661844],[-3.418418596669619,47.62440744654835],[-3.418514731122559,47.624429244604805],[-3.418506380183356,47.62424908729827],[-3.418609298111851,47.624216326489346],[-3.418643405904995,47.62427766401912],[-3.418635054555252,47.62409750670774],[-3.418743674585023,47.62400121565209],[-3.418672999882967,47.6239689847226],[-3.418772970863448,47.623800923043746],[-3.418865861055292,47.623795806849365],[-3.418732079694142,47.62379414435257],[-3.418839914664638,47.62358049510503],[-3.418640675670906,47.623257326594135],[-3.418304604176817,47.6232397124242],[-3.418416763789818,47.62306194882928],[-3.418237769808401,47.62301762162672],[-3.418129150867422,47.62311391226058],[-3.418091801532177,47.62302566054582],[-3.417974534787276,47.62305018037516],[-3.418021427003717,47.62288504240521],[-3.418095342747439,47.62294418774652],[-3.418210745355457,47.62279333832403],[-3.418111371103277,47.62274462599758],[-3.418137127944878,47.62262580623594],[-3.418046103167899,47.62275725133753],[-3.417941324500215,47.62266368219155],[-3.417922351442349,47.622727943110974],[-3.417776383910693,47.62273598163707],[-3.418012779466399,47.622813271730934],[-3.417924996849461,47.622971630726894],[-3.417764976920214,47.622863041884436],[-3.417706676738121,47.623155239975915],[-3.417836914847847,47.62323837643041],[-3.417794644365515,47.6233310128561],[-3.418015909236595,47.62328270424227],[-3.418186740750726,47.6234810060181],[-3.418302927342047,47.623447514652284],[-3.418344601365882,47.62357165159249],[-3.41856340725038,47.6236137860578],[-3.418545515651427,47.62368701837247],[-3.418371924556562,47.62368754801776],[-3.418558190849622,47.62390306102635],[-3.418332599827979,47.62391548534673],[-3.418279221602083,47.62402679539649],[-3.418076927258566,47.62401084359373],[-3.418097764203371,47.62407291208903],[-3.418296815745497,47.62406194987712],[-3.418046845722333,47.62409377794487],[-3.41814838440796,47.62416043294659],[-3.418072789163734,47.62430908980855],[-3.41783392614234,47.624322243962304],[-3.417998871555109,47.62424994449446],[-3.417983738046206,47.62412434589751],[-3.41762976829018,47.624179962000966],[-3.41762700789119,47.6243787927881],[-3.417544144075332,47.62435626326135],[-3.417594281465287,47.62421803957095],[-3.417461579962102,47.62422534695114],[-3.417379497518062,47.62432017536416],[-3.417523008155886,47.62440258139706],[-3.417443386977232,47.62440696579428],[-3.417525951326748,47.62453788210512],[-3.417401896004064,47.624616960062724],[-3.417352357454917,47.62453841023486],[-3.417315189472134,47.62478428978461],[-3.417225059339267,47.624590574007556],[-3.417097760974832,47.62464273764011],[-3.417102564372056,47.62490436770146],[-3.416947944331677,47.62484063451572],[-3.417016156976236,47.62496331049426],[-3.41683853946948,47.62481956583451],[-3.416844422402428,47.625090167217564],[-3.416897804683393,47.62497885788441],[-3.41696061333825,47.62505667721476],[-3.417128804711477,47.625011293005365],[-3.417183267164148,47.624908954870236],[-3.417311347003423,47.6249741491715],[-3.417356862242628,47.6249084269919],[-3.417385746152214,47.62525903958001]],[[-3.41783687009681,47.62445754466809],[-3.417840411796133,47.62437607193649],[-3.417960924404681,47.624378466242035],[-3.41783687009681,47.62445754466809]],[[-3.418197625639946,47.62434736917763],[-3.418148086170107,47.62426881967637],[-3.418242058244626,47.62427267530587],[-3.418197625639946,47.62434736917763]],[[-3.418486544502199,47.62341934028092],[-3.418371736881194,47.62335341638274],[-3.418543164808005,47.62333494408339],[-3.418486544502199,47.62341934028092]],[[-3.41796282959279,47.62328562740546],[-3.417911129590506,47.623189135094464],[-3.418018369635226,47.623192260123375],[-3.41796282959279,47.62328562740546]]]},"properties":{}},{"type":"Feature","geometry":{"type":"Polygon","coordinates":[[[-3.434921215592606,47.622458836066286],[-3.43512837183077,47.62229386967356],[-3.43522342547552,47.62230668282254],[-3.435252395494043,47.622214772795914],[-3.435054702019964,47.62212634820963],[-3.43502113259167,47.6222907603533],[-3.434950450328065,47.62225853924562],[-3.435041696558173,47.62201869404925],[-3.434862692274434,47.62197439230211],[-3.434805015464974,47.62204982528575],[-3.434743268072788,47.621980986616094],[-3.434817465471692,47.62193173450688],[-3.434722412591984,47.62191892102503],[-3.434456760560149,47.622041961465065],[-3.434231181107605,47.622054416504504],[-3.434387162642714,47.62201871119819],[-3.434391209416956,47.621720464060736],[-3.434457290787576,47.62182518767275],[-3.434624373390075,47.62177080700882],[-3.434480843432545,47.62168842187874],[-3.434653344149149,47.6216788971055],[-3.434546371104094,47.62156740043435],[-3.43460891217562,47.62131107845643],[-3.434454835089198,47.62147311337436],[-3.434321324452635,47.62136308180677],[-3.434419362064999,47.621511196108365],[-3.434342732220319,47.621650892512044],[-3.434051339826063,47.62145023660145],[-3.434229523613232,47.621377181490125],[-3.434039952071618,47.621134779617456],[-3.434077326446958,47.62122302631618],[-3.433969005830324,47.62121094483516],[-3.434028584131383,47.62126184155501],[-3.433924331586882,47.62139403173375],[-3.434029953400883,47.621604944708935],[-3.433814394259403,47.62158975275695],[-3.433893743634537,47.62169374410475],[-3.433808177119868,47.62187005750958],[-3.433632424994849,47.62185266745129],[-3.433567428741374,47.62175691456931],[-3.433810877123277,47.621671226087905],[-3.433460457807956,47.62164541690804],[-3.433448806345742,47.62143834682249],[-3.433345902880963,47.6214711207535],[-3.433550374925033,47.62194750734224],[-3.433402244864285,47.621937623011064],[-3.433338332416698,47.62185084120211],[-3.433221075257319,47.62187537635371],[-3.433292839459971,47.62191656971135],[-3.43309326323494,47.622144331266504],[-3.433155824404813,47.62233052887373],[-3.433295287515366,47.622268643953966],[-3.433344847415554,47.62234718710995],[-3.433422297173068,47.62232484948049],[-3.43334051338721,47.62231130233126],[-3.433380589062827,47.62220071784282],[-3.433454520874132,47.6222598534836],[-3.433679017814002,47.62223842875359],[-3.433709074019353,47.62215549029894],[-3.433907031604384,47.62213553028091],[-3.433577730294977,47.622063400304924],[-3.43355931014737,47.62191089000429],[-3.43364894498199,47.621878848463865],[-3.433643260474097,47.621942379390525],[-3.433866672416316,47.62191198310254],[-3.434067082183708,47.622244097045765],[-3.434393664707101,47.62207253831575],[-3.434520410068644,47.622237129535904],[-3.434484383005437,47.622049467323066],[-3.434615728259515,47.62214155629812],[-3.43462817870634,47.62202346554499],[-3.434719980551799,47.622009365552955],[-3.434926079023826,47.62227794703956],[-3.434923647312336,47.62236839155505],[-3.434802054730305,47.62235704356813],[-3.434921215592606,47.622458836066286]],[[-3.434254468908085,47.62202603766576],[-3.434145062986494,47.62200498516532],[-3.434129892127389,47.62187938851814],[-3.434332183186598,47.62189531253443],[-3.434254468908085,47.62202603766576]],[[-3.434020220555287,47.62196672279577],[-3.433969576411175,47.62187920872012],[-3.434051359694715,47.62189275543186],[-3.434020220555287,47.62196672279577]],[[-3.434268534773765,47.62170014432677],[-3.434145860223961,47.62167982446375],[-3.434288571441765,47.621644851908506],[-3.434268534773765,47.62170014432677]]]},"properties":{}},{"type":"Feature","geometry":{"type":"Polygon","coordinates":[[[-3.430734822471995,47.62219322045565],[-3.430842333719247,47.62208794683546],[-3.430930615111684,47.622155323043565],[-3.430952010739095,47.62200061554743],[-3.430673625754546,47.62190760587358],[-3.430489756713429,47.621601667513545],[-3.430441011443766,47.62164048124755],[-3.430484341653489,47.62155681139047],[-3.430624615980589,47.621612287768066],[-3.43061107373773,47.621721406896405],[-3.430743494562948,47.62182247146389],[-3.43082419386702,47.621827049214716],[-3.430792512331799,47.621675270708174],[-3.430932515021976,47.6218391336086],[-3.431121535598994,47.62185579544726],[-3.43105491669411,47.62196784373455],[-3.431129928735796,47.6220359520711],[-3.431402358755947,47.62185835959446],[-3.431708637455233,47.6218504871571],[-3.431714324255626,47.62178695632162],[-3.431934216634491,47.621838036988464],[-3.431987564200055,47.621726720574706],[-3.432089659234649,47.62201910852988],[-3.432231014980048,47.62164103538512],[-3.432432221229179,47.62164799148603],[-3.432486112687048,47.621762419854605],[-3.432487734261084,47.62155461724638],[-3.432736877969127,47.62184791894972],[-3.432826513191633,47.62181587803946],[-3.432891508187972,47.62191163133086],[-3.432858737310837,47.62175088218995],[-3.432947288869024,47.62170986998339],[-3.433199953922156,47.621921697384444],[-3.43315201362092,47.62163535154101],[-3.432993865509617,47.62165311280282],[-3.433064813729755,47.62157694819476],[-3.432913434528659,47.62154014963924],[-3.432843569550197,47.62162528535933],[-3.432721164351153,47.6214965770853],[-3.432722516370177,47.62139716137052],[-3.432807548794352,47.62143762257031],[-3.432909637362194,47.62128749098454],[-3.432837059299971,47.62112893923955],[-3.432909090455529,47.62106174591083],[-3.432783167729358,47.62101451099572],[-3.432911525520476,47.620971301376635],[-3.432695969255771,47.62095610735548],[-3.432614464558702,47.62127669170856],[-3.432674856287308,47.621444947245436],[-3.432500458361792,47.62132813976219],[-3.432503439322017,47.62146344030412],[-3.432421657088963,47.62144989250547],[-3.432435464777219,47.621232386224484],[-3.432157894720466,47.62125673819254],[-3.432165751734147,47.62165366862236],[-3.4318551412572,47.62162565741279],[-3.431769838687675,47.621693582429856],[-3.431880326283244,47.62172360836969],[-3.431832665155087,47.6217713938929],[-3.431616022761599,47.62174722667346],[-3.43151907567933,47.62160808125168],[-3.431478996592602,47.621718665134985],[-3.431321119157398,47.62162803722768],[-3.431379883595286,47.6215615771647],[-3.431246107444953,47.62155992899967],[-3.431280228059633,47.62162126292216],[-3.431110704374978,47.62176608327013],[-3.430958242890376,47.62172031096582],[-3.431103122539829,47.62170328474308],[-3.431054649643841,47.62163371182904],[-3.430769495443287,47.62159526195824],[-3.430628948126604,47.62164817266041],[-3.430737541538326,47.62155187033065],[-3.430585080985431,47.621506097534194],[-3.430604038366549,47.621441834518244],[-3.430432620693975,47.62146032453762],[-3.430449412238469,47.62137811909326],[-3.43093143792274,47.62138764354447],[-3.431120728785486,47.62129591846779],[-3.431020262447304,47.62123824586761],[-3.430278541905829,47.62117983504141],[-3.43004402761465,47.6212288990996],[-3.429964137966686,47.621341678961116],[-3.429886962577918,47.62125562738832],[-3.429853377782111,47.6214200381198],[-3.429950594442471,47.621450798028036],[-3.429991759417947,47.621349185884334],[-3.430058914636248,47.621462883234486],[-3.430148550819478,47.62143084437315],[-3.430107386079468,47.62153245656787],[-3.429852020419546,47.62151945380013],[-3.429865823769487,47.62174446669501],[-3.429910512224851,47.621561381382],[-3.43006866109012,47.62154362429449],[-3.430142314450636,47.62171114895322],[-3.430146111052614,47.621521288828355],[-3.43023791321817,47.62150719235567],[-3.430273115616661,47.621577497801006],[-3.430405808782637,47.621570175855105],[-3.430429634830062,47.62176754280167],[-3.430529018502238,47.62181624467113],[-3.430451295026053,47.621946967277],[-3.430128223393258,47.62203704179298],[-3.430067564995946,47.62197717187714],[-3.430050772675037,47.622059377241335],[-3.429889373510991,47.62205022061623],[-3.42989587104417,47.622104047983214],[-3.430472145552179,47.62200903362976],[-3.430477287453431,47.622162276620266],[-3.430734822471995,47.62219322045565]],[[-3.430736178207705,47.622093804799434],[-3.430659000487191,47.622007753770035],[-3.430777342183734,47.6219921924124],[-3.430736178207705,47.622093804799434]],[[-3.431362822031531,47.62175216963727],[-3.431287810091467,47.62168406144038],[-3.431421586554144,47.62168570955752],[-3.431362822031531,47.62175216963727]],[[-3.432348272079725,47.62161650122454],[-3.4322123291566,47.62159691175181],[-3.432169541135911,47.621463808426164],[-3.432383201965415,47.62135267407919],[-3.432348272079725,47.62161650122454]],[[-3.430313197095284,47.62146691432352],[-3.430176172342805,47.62143835125241],[-3.430336760198653,47.62133014934023],[-3.430313197095284,47.62146691432352]]]},"properties":{}},{"type":"Feature","geometry":{"type":"Polygon","coordinates":[[[-3.428603293419666,47.62257272133547],[-3.428686712798487,47.62237846933272],[-3.428555931382291,47.62206959996373],[-3.428664529390772,47.621973299582336],[-3.428675104388685,47.62172888008226],[-3.428566783968473,47.62171679359405],[-3.428543216160047,47.62185355819303],[-3.428428122135257,47.62189603101501],[-3.428450581027012,47.622192813961625],[-3.428333598417835,47.62210895733259],[-3.42821092518797,47.62208863124009],[-3.428180860478453,47.6221715682825],[-3.427916831496114,47.62208679133953],[-3.428085004196763,47.62204139128451],[-3.428005665620212,47.6219373960091],[-3.427900592681568,47.621952222642165],[-3.427900314255802,47.62206060951899],[-3.427533133189152,47.621674468831365],[-3.427515254544641,47.621747702592536],[-3.427368208647241,47.621746781858796],[-3.427360910736724,47.621575596191725],[-3.427300255967192,47.6215157248245],[-3.427198431037652,47.621557464591994],[-3.42712695201413,47.621407880576875],[-3.426837191690342,47.62144192298291],[-3.426767357659815,47.621084536159415],[-3.426709951211911,47.621051578255276],[-3.426677720028952,47.62111657243142],[-3.42661381949559,47.62102978690636],[-3.42671187608047,47.62073538871026],[-3.426784716101464,47.62078555735408],[-3.42674843645292,47.62070627956556],[-3.42684132049542,47.62070115702016],[-3.426935528180748,47.62103913773618],[-3.427068220466247,47.62103181958023],[-3.427129434398477,47.62087491721895],[-3.427039797336851,47.6209069537723],[-3.427009209517637,47.62076414542832],[-3.42692281976132,47.620823095674844],[-3.426915242986321,47.620760296845624],[-3.427043604915231,47.62071709367006],[-3.42702680833433,47.62079929865259],[-3.427120774942335,47.620803147145445],[-3.427041440084259,47.62069915114894],[-3.427268097939674,47.620695681245905],[-3.427325783935266,47.620620251932166],[-3.427146510795264,47.62068432527928],[-3.427021676468767,47.62064605540311],[-3.427001632649382,47.620701346602814],[-3.426989726178139,47.620602662729056],[-3.426820474701261,47.620639089977594],[-3.426803156719459,47.62049554976409],[-3.426692393650835,47.62057390595902],[-3.426577582016621,47.62050799003097],[-3.426589206624313,47.620715060900096],[-3.426314883472859,47.62076631278162],[-3.426096601236312,47.62094993792021],[-3.426225764745891,47.62102409384631],[-3.426180263736921,47.62108981961273],[-3.42613288008247,47.62102921590133],[-3.426028890663151,47.62105301212484],[-3.426198380643618,47.62135071805303],[-3.426357612432437,47.6213419372542],[-3.426435345051599,47.621211217332146],[-3.426628410422984,47.621372158414296],[-3.426758938816026,47.62134689808813],[-3.426772729084426,47.62157191136832],[-3.427023764524649,47.621549035841475],[-3.427146958606515,47.6217951082278],[-3.427346802735921,47.62190148871839],[-3.427422089350299,47.62186121255798],[-3.427487074708141,47.621956968854484],[-3.427671764439315,47.62193775127241],[-3.427906531370712,47.6222228238642],[-3.428077674299499,47.622312724422855],[-3.428024874346271,47.62220726529721],[-3.42814321725285,47.6221917066102],[-3.428245569848655,47.622375711001645],[-3.428321939117217,47.622344405512884],[-3.428603293419666,47.62257272133547]],[[-3.427149403466988,47.621704663848014],[-3.427075759507263,47.62153713730144],[-3.427189491511549,47.62159408144985],[-3.427149403466988,47.621704663848014]],[[-3.426578341172786,47.62106786726735],[-3.426422638615341,47.62099517523547],[-3.426453787714498,47.62092120986065],[-3.426578622277301,47.62095948033842],[-3.426578341172786,47.62106786726735]]]},"properties":{}},{"type":"Feature","geometry":{"type":"MultiPolygon","coordinates":[[[[-3.442372910635093,47.62067439995418],[-3.442340698749022,47.62073939846414],[-3.442122970838642,47.62070627960302],[-3.442186983499896,47.62123557563123],[-3.442100609742034,47.6212945370893],[-3.442191073978942,47.62137984704827],[-3.442130153268833,47.62142837032209],[-3.442313091768148,47.62216783803036],[-3.442232141635473,47.62227165511617],[-3.442117307164863,47.62220575452323],[-3.442073994661182,47.622289428667344],[-3.442036606320758,47.622201184576376],[-3.442254589558342,47.62212591667347],[-3.442205515520654,47.621830603463906],[-3.442045449631172,47.62172204782914],[-3.44211288055879,47.6217273513039],[-3.441984192942374,47.62143643910732],[-3.442058632581641,47.62127879543816],[-3.441983607661992,47.62121069409484],[-3.442069981413427,47.62115173272077],[-3.441981102357001,47.620858619845244],[-3.442082914394085,47.62081686717538],[-3.442020323863138,47.62063067420645],[-3.442184389569369,47.62044098233457],[-3.441940375151179,47.62030094320558],[-3.441819286104027,47.620072828491864],[-3.441912417565115,47.61995930693962],[-3.441820621144788,47.61997341259979],[-3.441729075016247,47.61987913116424],[-3.441813277135382,47.619802227682875],[-3.441743929243438,47.61967059473807],[-3.441664066644041,47.61978338269161],[-3.441495078594535,47.61971144418835],[-3.441455774278894,47.619496870487495],[-3.441586291069143,47.61947159356629],[-3.441564343783995,47.619400557985664],[-3.441687850348523,47.61953822825925],[-3.441550824462028,47.619509678505246],[-3.441566012105775,47.619635274340645],[-3.441694359471582,47.61959205503865],[-3.441882875397094,47.61982547355086],[-3.441959233019762,47.61979415910449],[-3.441841399678828,47.61959295773642],[-3.441912332538532,47.61951678767374],[-3.442017982195532,47.619727693627],[-3.441934615466306,47.619921955412956],[-3.441994199922612,47.61997284810279],[-3.442038595590759,47.619898145013934],[-3.442176707677937,47.61993566531366],[-3.442143411060017,47.61999169267043],[-3.442082741513152,47.6199318289327],[-3.441992865205101,47.62007226399687],[-3.44209634640644,47.62026522757148],[-3.442036511809243,47.62032272194689],[-3.442281611550465,47.62047173199374],[-3.442332018865781,47.620667629514806],[-3.442372910635093,47.62067439995418]]],[[[-3.442372910635093,47.62067439995418],[-3.442454694204837,47.62068794078989],[-3.442381590574409,47.62074616890022],[-3.442372910635093,47.62067439995418]]]]},"properties":{}},{"type":"Feature","geometry":{"type":"Polygon","coordinates":[[[-3.430700180363051,47.621021103650094],[-3.430763549696489,47.62088214183511],[-3.43088297193147,47.620875551586764],[-3.430829622913261,47.620986867544616],[-3.430971251370334,47.620942927806084],[-3.430986958841276,47.62085175103913],[-3.431263444199282,47.62081843062797],[-3.43074513799581,47.620729630998284],[-3.431388824644453,47.62063992205669],[-3.431486583045147,47.62045390676791],[-3.431275633325765,47.620366208029715],[-3.431472502033308,47.62033728089671],[-3.431517183800812,47.62015419483679],[-3.431338188693558,47.620109887645455],[-3.431351186222252,47.6202175423236],[-3.431235014847544,47.62025104672455],[-3.431372037119131,47.62027960857079],[-3.431154046079425,47.62035485623328],[-3.431051682337812,47.62061337332109],[-3.43066254712047,47.62059872377767],[-3.430580493701985,47.6206935616432],[-3.430485180564204,47.620346612577436],[-3.430568589617245,47.62015235900868],[-3.430465686863133,47.6201851304236],[-3.430438339211274,47.62006923662041],[-3.430534743826557,47.61998263783941],[-3.430428865749526,47.61988010853209],[-3.430546119809744,47.61985557615866],[-3.430530958028142,47.61972997890561],[-3.430573740573962,47.61986308294996],[-3.430753817242202,47.619916362548324],[-3.430827477361919,47.61964136767352],[-3.43090329657121,47.619826834474964],[-3.430917110025644,47.61960932819239],[-3.431054402490437,47.61952950340197],[-3.431272930270064,47.61968000116112],[-3.431488750733139,47.62002933005554],[-3.431717029976524,47.61981804873771],[-3.431576759228604,47.619762573621074],[-3.431639041620669,47.61961464001786],[-3.431330880958665,47.61949618280856],[-3.431437302472047,47.61938193726813],[-3.431415640002981,47.61920251273955],[-3.431178701467446,47.618899504298945],[-3.431053868424075,47.61886123869768],[-3.431159745680792,47.618963767491984],[-3.431035995551145,47.618934473103444],[-3.431018122629181,47.619007707503684],[-3.430883542216849,47.618888700635104],[-3.430591632010003,47.61890480993334],[-3.430495775715471,47.618774634695825],[-3.430409393028332,47.61883358758144],[-3.43053286951517,47.618971269690306],[-3.430998083563818,47.61906299943565],[-3.431055218514688,47.619204342308755],[-3.430879476061982,47.61918694808403],[-3.43088028673004,47.61930430635315],[-3.431075796706817,47.61937479567473],[-3.430923880573364,47.61955476855232],[-3.43077684065732,47.61955385210908],[-3.430814208532142,47.61964209992353],[-3.430711579618786,47.61956648454728],[-3.430671500392127,47.6196770682693],[-3.43051010832373,47.61966791249077],[-3.430556958793916,47.619502769203336],[-3.43043104182593,47.61945553171445],[-3.430527445344857,47.619368932912245],[-3.430399089476734,47.61941213994665],[-3.430406133853805,47.61924919329798],[-3.430310003874335,47.6192274049713],[-3.430390972573732,47.619123595987716],[-3.430274802976847,47.61915709945234],[-3.430275338725169,47.61938284475884],[-3.430207911935446,47.6193775344433],[-3.430439432255306,47.61963568860979],[-3.430279659060628,47.61986124899699],[-3.430367662654879,47.62003701270263],[-3.430176482896315,47.62000240715895],[-3.430145065632229,47.62018476054791],[-3.430044328375623,47.62023547405904],[-3.430090358875566,47.62039549194859],[-3.430200842840046,47.62042551949721],[-3.430231986372239,47.6203515530932],[-3.430319181162815,47.62040995859116],[-3.430240649937657,47.62042332295261],[-3.430317824693343,47.620509374328456],[-3.430175113909882,47.62054434205213],[-3.430434533640493,47.62070161599733],[-3.430248492573857,47.62082025368106],[-3.430135841891741,47.62077228372051],[-3.430021834383418,47.620823729367935],[-3.430355455145572,47.620931754331295],[-3.430484897700211,47.62089751860633],[-3.430700180363051,47.621021103650094]],[[-3.430610818116923,47.62094475600221],[-3.430531749327451,47.62073237543317],[-3.430757051437179,47.62082831448263],[-3.430610818116923,47.62094475600221]],[[-3.431333582090737,47.620624908859064],[-3.431183289891407,47.62059707926436],[-3.431183561644365,47.62048869229835],[-3.431289713915165,47.6204828339229],[-3.431212537631316,47.62039678318813],[-3.431426736810922,47.62051139570158],[-3.431322750760121,47.62053519664492],[-3.431333582090737,47.620624908859064]],[[-3.431265891701994,47.61940042853003],[-3.431193049359956,47.619350262645455],[-3.431276182723196,47.6192643955122],[-3.431265891701994,47.61940042853003]],[[-3.431147827712366,47.61930760337181],[-3.431067404171044,47.61919463880102],[-3.431171659494481,47.619062451023396],[-3.431237731259741,47.61916717659975],[-3.431147827712366,47.61930760337181]]]},"properties":{}},{"type":"Feature","geometry":{"type":"Polygon","coordinates":[[[-3.420159531506958,47.62255956260542],[-3.420231874546472,47.622383990311704],[-3.420181641809517,47.62174556467359],[-3.420297823372327,47.621712071293466],[-3.420578351960713,47.62182304833789],[-3.420416167432598,47.62169652043206],[-3.4203755713682,47.62158135542979],[-3.420482808327443,47.621584478198486],[-3.420324949957839,47.62149383542155],[-3.420233733175712,47.62129115031872],[-3.420264397584857,47.6209914414678],[-3.420392765451327,47.620948245607245],[-3.420135242435265,47.62091727894785],[-3.420248272938071,47.62041435257014],[-3.420172195804219,47.62033726586283],[-3.420077936219027,47.62044179872621],[-3.419967457915434,47.620411761601794],[-3.419883026246446,47.62015451712452],[-3.41996047845444,47.620132188397136],[-3.419904747734194,47.619891424523004],[-3.420003331542492,47.61982277708967],[-3.4201414279431,47.61986032344768],[-3.420009915356279,47.61943408578417],[-3.420121472887847,47.619473094213845],[-3.420276280751808,47.61987095566068],[-3.420328369483386,47.61941654082653],[-3.42049703462889,47.619596896961035],[-3.420497914954176,47.61927173595573],[-3.42035578850578,47.61908991767296],[-3.420438845930567,47.619446577624856],[-3.420345175943246,47.61933433674935],[-3.420311856790727,47.61939035789709],[-3.420296719217883,47.61926475928651],[-3.42019892400754,47.619450765320536],[-3.419933839963463,47.619356998882836],[-3.41997738249532,47.61960746515884],[-3.419859042938044,47.6196230155923],[-3.419862778223315,47.619875674883595],[-3.419759869431772,47.619908436870055],[-3.419902290683435,47.619981868834884],[-3.419787193820003,47.62002433318223],[-3.419787685230457,47.62025007843446],[-3.419991539331065,47.620500743855246],[-3.420071154474642,47.62049635771218],[-3.420025646338483,47.620562081098434],[-3.420132881229854,47.62056520419005],[-3.420032626196951,47.62084165423754],[-3.420140648734773,47.62096213556509],[-3.420120796283175,47.6213515576077],[-3.42026263402223,47.62164176284693],[-3.420115588542349,47.62164083298192],[-3.420156677077841,47.621981743121076],[-3.420018377203466,47.62161006489041],[-3.419826117301522,47.6215664711102],[-3.419853147919929,47.62179075418041],[-3.41963877285815,47.62134198853882],[-3.419479539964666,47.621350760177364],[-3.419317848910389,47.62144997583022],[-3.419260446668765,47.62141701427075],[-3.419435010235763,47.621867973462955],[-3.41939058130165,47.62194266788084],[-3.419287964147229,47.62186704255606],[-3.419332586844522,47.62212648007573],[-3.419275479803765,47.62198513168117],[-3.41919910574474,47.62201643126024],[-3.418892336609844,47.62179852584155],[-3.418908361642446,47.62159896386586],[-3.418994464998846,47.62164840644921],[-3.419120673267681,47.621587269339365],[-3.419188886748047,47.621709944254086],[-3.419303987721493,47.621667480533105],[-3.419217098982045,47.621500679968925],[-3.419171588938329,47.621566402988506],[-3.419148589513207,47.6214863919448],[-3.418894307807023,47.621482336548176],[-3.418771045695841,47.62167877429214],[-3.418775963778267,47.62149788586922],[-3.41853681607447,47.621619428358365],[-3.418611514372106,47.62179593161479],[-3.418754236074044,47.621760978043895],[-3.41880701727197,47.621866441384014],[-3.419201267993344,47.6220343739145],[-3.419143568990644,47.62210979916021],[-3.419174728825217,47.62203583576939],[-3.418992494388744,47.621964595717316],[-3.41911378644888,47.6220843470192],[-3.418988954607637,47.622046068584815],[-3.418983252635897,47.622109598791404],[-3.419182785547421,47.622324380073785],[-3.419013523285761,47.622360795976256],[-3.418502303578884,47.62210899636463],[-3.418450008515271,47.62222927792845],[-3.418633324165946,47.6223094901484],[-3.418614352066943,47.622373751191915],[-3.418750588981235,47.622284969648284],[-3.419350079062363,47.6226041530956],[-3.419127840922268,47.62220097427441],[-3.419269482230203,47.62215704875397],[-3.419339859086414,47.62229766619516],[-3.419339073742653,47.62218030802745],[-3.419438152456753,47.62233740616407],[-3.419499390311075,47.62218050790782],[-3.419630414818331,47.62238100056567],[-3.419412601600496,47.62157118873515],[-3.419573997517936,47.62158035984042],[-3.419590805820584,47.62149815596304],[-3.419941120366252,47.621966525567096],[-3.420159531506958,47.62255956260542]]]},"properties":{}},{"type":"Feature","geometry":{"type":"Polygon","coordinates":[[[-3.422831141861816,47.61868258092593],[-3.422856886239514,47.61856375987598],[-3.422996351447174,47.618501887135],[-3.422947892022315,47.61843231074253],[-3.423036445688893,47.61839130598081],[-3.423070554846919,47.61845264240107],[-3.423182400549678,47.61838326086295],[-3.423169419939344,47.618275605175064],[-3.423287755545699,47.61826005137654],[-3.423152400585078,47.61802367716266],[-3.423047334001265,47.61803849945924],[-3.423149949121996,47.61811412162938],[-3.423031613798944,47.618129675289424],[-3.422810878999342,47.61840373898591],[-3.422783548876753,47.61828784328497],[-3.422677400037455,47.618293693935634],[-3.42270530784043,47.618192815520594],[-3.422563679876578,47.61823674529708],[-3.422555316243117,47.618056587707656],[-3.422439144051381,47.61809008339625],[-3.422364650929125,47.6182477148135],[-3.422241988844177,47.61822738241142],[-3.422278260116484,47.61830666170043],[-3.422133096755807,47.61843206407023],[-3.422272272625424,47.618478579251736],[-3.422302344433962,47.61839564357341],[-3.422535771783035,47.61833762367599],[-3.422525169350249,47.618582043044604],[-3.422752107370612,47.61847019484466],[-3.422747203038882,47.61865108371567],[-3.422831141861816,47.61868258092593]],[[-3.422533608563509,47.61831968104946],[-3.422413109426352,47.61831729145456],[-3.422468636517467,47.61822392181834],[-3.422533608563509,47.61831968104946]]]},"properties":{}},{"type":"Feature","geometry":{"type":"Polygon","coordinates":[[[-3.421418084092589,47.619148786292634],[-3.421278409514742,47.61887652473041],[-3.421292845580779,47.618442245376166],[-3.421413053372242,47.618553023182834],[-3.421485095429566,47.618485836811764],[-3.421413344949806,47.618444636126796],[-3.421623771714468,47.61830660732098],[-3.421546614156316,47.618220550103494],[-3.421616201529631,47.61824380806711],[-3.4216197370494,47.61816233496113],[-3.421705837374262,47.61821177563269],[-3.421482226871972,47.61790801615244],[-3.421393672813324,47.617949019745815],[-3.421491959706204,47.61798875807488],[-3.421420416624277,47.61828168994039],[-3.421126344138171,47.61827983293739],[-3.421238689534528,47.618436198711116],[-3.421239976536625,47.61877930250775],[-3.421035041785657,47.61851966771859],[-3.420747162951667,47.61868002476586],[-3.420678161529701,47.61843999218676],[-3.420564149889159,47.6184914286631],[-3.420649168469995,47.618531898774776],[-3.420573294875107,47.618788944725594],[-3.420513732161834,47.618738041078096],[-3.420493682318956,47.618793331214796],[-3.4205575702267,47.61888012018765],[-3.42060661337796,47.618732923485986],[-3.420735763898028,47.61880708556776],[-3.420789131783518,47.61869577409713],[-3.420863833436715,47.618872276177655],[-3.42083110064013,47.61871152341316],[-3.420977056708602,47.61870348105278],[-3.421016570517576,47.61880967469089],[-3.421002512811012,47.61869304746008],[-3.421095393902007,47.61868792947914],[-3.421418084092589,47.619148786292634]]]},"properties":{}},{"type":"Feature","geometry":{"type":"Polygon","coordinates":[[[-3.424179076044459,47.61900563913471],[-3.424334544767025,47.61874420181683],[-3.424432835312707,47.61878393765463],[-3.424476457979656,47.61859188284879],[-3.424309435870515,47.61820372951795],[-3.424387965315303,47.61819036912954],[-3.42434844525885,47.61808417659851],[-3.424463248928511,47.61815009479981],[-3.424354426020245,47.6179122589061],[-3.424382105185105,47.61747724743888],[-3.42425050324684,47.6174935338576],[-3.424228804149732,47.61775662759031],[-3.424323847099718,47.61776944963966],[-3.424252605660319,47.61795399618241],[-3.424089056175625,47.61792688892414],[-3.424070092200756,47.6179911509982],[-3.424049250686388,47.61792908337482],[-3.424025672977648,47.61806584732768],[-3.423823399504065,47.618049905429],[-3.423742419663386,47.618153709916044],[-3.424091157213738,47.61838735114962],[-3.42410038444928,47.6182423473948],[-3.424319173034331,47.618284471192496],[-3.424274468147656,47.61846755467333],[-3.424178342078248,47.61844576129092],[-3.424123899627539,47.61854810302697],[-3.424142291661433,47.6187006150777],[-3.424047247097381,47.61868779288672],[-3.424010177381827,47.61849115580439],[-3.423905110116188,47.61850597886912],[-3.423950611723933,47.61844025390202],[-3.423801411347974,47.618421386076626],[-3.423788429480173,47.61831373045965],[-3.423498683820975,47.61834776463688],[-3.423575844709486,47.61843382055903],[-3.42367983012052,47.618410026487716],[-3.423674134119062,47.618473557041696],[-3.423515992221704,47.61849130549832],[-3.423448854675322,47.61837760421313],[-3.423358137848306,47.618400666677346],[-3.423463999412111,47.618503202472155],[-3.423468546048437,47.6188732201389],[-3.423587744386795,47.61853250489046],[-3.423680337975527,47.618635771910114],[-3.423919174114202,47.618622605761665],[-3.42390965980995,47.618875996518184],[-3.423977371713548,47.61877292342715],[-3.424040979015232,47.61896809753456],[-3.424179076044459,47.61900563913471]],[[-3.42427669310927,47.61804297766427],[-3.424172994651597,47.61795838518163],[-3.424266956053741,47.61796223597619],[-3.42427669310927,47.61804297766427]]]},"properties":{}}]}